,index,name,state,county,elevation,commodity,lat,lon,distance_km
0,https://westernmininghistory.com/mine-detail/10270000/,Accident Mine,Nevada,Clark,"4,239 Feet
                    (1,292 Meters)",Lead,35.7603,-115.4428,42.7199027316822
1,https://westernmininghistory.com/mine-detail/10037206/,Accident Mine,Nevada,Clark,"4,301 Feet
                    (1,311 Meters)","Lead, Zinc",35.76,-115.44306,42.760474719624035
2,https://westernmininghistory.com/mine-detail/10103556/,Ada and Edith Claims,Nevada,Clark,"8,399 Feet
                    (2,560 Meters)","Silver, Lead",36.34417,-115.65722,57.401359874098354
3,https://westernmininghistory.com/mine-detail/10270247/,Addison Mine,Nevada,Clark,"3,360 Feet
                    (1,024 Meters)",Zinc,35.7061,-115.4889,50.00581033456882
4,https://westernmininghistory.com/mine-detail/10103565/,Addison Mine,Nevada,Clark,"3,599 Feet
                    (1,097 Meters)",Zinc,35.70611,-115.48778,49.94002798764273
5,https://westernmininghistory.com/mine-detail/10294927/,Aggandize Mining Company Mill,Nevada,Clark,"4,921 Feet
                    (1,500 Meters)",Gold,36.7889,-114.0556,126.5487433298601
6,https://westernmininghistory.com/mine-detail/10037207/,Akron Claim,Nevada,Clark,"3,799 Feet
                    (1,158 Meters)",Zinc,35.81139,-115.51472,43.53833399821605
7,https://westernmininghistory.com/mine-detail/10149731/,Akron Mine,Nevada,Clark,,Zinc,35.8,-115.5,43.29982595974742
8,https://westernmininghistory.com/mine-detail/10173501/,Albert Nay Prospect,Nevada,Clark,"4,659 Feet
                    (1,420 Meters)",Gold,36.5472,-114.1097,106.95320249346942
9,https://westernmininghistory.com/mine-detail/10111397/,Alice Mine,Nevada,Clark,"5,217 Feet
                    (1,590 Meters)","Zinc, Lead",35.84417,-115.49417,39.882718132506774
10,https://westernmininghistory.com/mine-detail/10173858/,Alice Mine,Nevada,Clark,"5,039 Feet
                    (1,536 Meters)",Zinc,35.8425,-115.4961,40.13190302883405
11,https://westernmininghistory.com/mine-detail/10047010/,Alunite Mine,Nevada,Clark,,"Gold, Potassium",35.97417,-114.91194,21.47401940084571
12,https://westernmininghistory.com/mine-detail/10047003/,Anchor,Nevada,Clark,"4,400 Feet
                    (1,341 Meters)",Silver,35.75056,-115.43833,43.2856338772007
13,https://westernmininghistory.com/mine-detail/10124453/,Anchor Mine,Nevada,Clark,"3,921 Feet
                    (1,195 Meters)",Lead,35.7494,-115.4408,43.52718733204716
14,https://westernmininghistory.com/mine-detail/10037177/,Anderson Mine,Nevada,Clark,,Gold,36.22056,-114.21889,84.11334883197455
15,https://westernmininghistory.com/mine-detail/10246360/,Anderson Mine,Nevada,Clark,,Gold,36.225,-114.2167,84.41505904299983
16,https://westernmininghistory.com/mine-detail/10173864/,Annex Mine,Nevada,Clark,"4,400 Feet
                    (1,341 Meters)",Lead,35.8042,-115.4542,39.90436587462158
17,https://westernmininghistory.com/mine-detail/10294830/,Antimony Prospect,Nevada,Clark,"4,961 Feet
                    (1,512 Meters)",Antimony,35.7983,-115.4542,40.357554567877195
18,https://westernmininghistory.com/mine-detail/10149402/,Apex Deposit,Nevada,Clark,,Silica,36.3264,-114.9106,36.55857085352224
19,https://westernmininghistory.com/mine-detail/10271201/,Apprentice Prospect,Nevada,Clark,"4,199 Feet
                    (1,280 Meters)",Copper,35.5742,-115.1556,52.96552235358495
20,https://westernmininghistory.com/mine-detail/10294695/,Arden Quarries,Nevada,Clark,"3,061 Feet
                    (933 Meters)",Silica,35.9781,-115.2942,16.68635385074039
21,https://westernmininghistory.com/mine-detail/10197786/,Argentena,Nevada,Clark,"4,800 Feet
                    (1,463 Meters)",Zinc,35.8117,-115.4667,40.17513685286602
22,https://westernmininghistory.com/mine-detail/10037208/,Argenteria Mine,Nevada,Clark,"4,800 Feet
                    (1,463 Meters)","Lead, Zinc",35.81306,-115.46694,40.09158652182677
23,https://westernmininghistory.com/mine-detail/10269982/,Atomic Prospect,Nevada,Clark,,Uranium,36.3458,-114.125,96.10820223052718
24,https://westernmininghistory.com/mine-detail/10103562/,Azure Ridge Mine,Nevada,Clark,"2,799 Feet
                    (853 Meters)",Zinc,36.31833,-114.08167,98.82186978186701
25,https://westernmininghistory.com/mine-detail/10124300/,Azure Ridge Mine,Nevada,Clark,"2,822 Feet
                    (860 Meters)",Zinc,36.3186,-114.0853,98.5202665849097
26,https://westernmininghistory.com/mine-detail/10246861/,Azurite Mine,Nevada,Clark,"3,701 Feet
                    (1,128 Meters)",Copper,35.8264,-115.5603,45.92995753087813
27,https://westernmininghistory.com/mine-detail/10111424/,Azurite Mine,Nevada,Clark,"3,839 Feet
                    (1,170 Meters)","Zinc, Lead, Copper",35.82611,-115.56028,45.94597781379235
28,https://westernmininghistory.com/mine-detail/10246265/,Bard Deposit,Nevada,Clark,"2,799 Feet
                    (853 Meters)",Silica,35.9867,-115.2811,15.195519361244235
29,https://westernmininghistory.com/mine-detail/10037200/,Bauer - Dollery Deposit,Nevada,Clark,"2,001 Feet
                    (610 Meters)",Manganese,36.19222,-114.52778,56.47628427942176
30,https://westernmininghistory.com/mine-detail/10294945/,Bauer Magnesite,Nevada,Clark,,Magnesite,36.3519,-114.1236,96.45679743235166
31,https://westernmininghistory.com/mine-detail/10124363/,Bauer-Dollery Deposit,Nevada,Clark,,Manganese,36.1936,-114.525,56.758534351545926
32,https://westernmininghistory.com/mine-detail/10046989/,Bay City Claim Group,Nevada,Clark,"3,550 Feet
                    (1,082 Meters)",Gold,35.47556,-114.96083,65.71743446398513
33,https://westernmininghistory.com/mine-detail/10221670/,Bay City Group,Nevada,Clark,,Gold,35.4761,-114.9628,65.61760301910614
34,https://westernmininghistory.com/mine-detail/10294592/,Bel Claims,Nevada,Clark,"2,297 Feet
                    (700 Meters)",,35.7119,-114.7958,48.25843665642763
35,https://westernmininghistory.com/mine-detail/10094231/,Belle Claim,Nevada,Clark,"4,360 Feet
                    (1,329 Meters)",Copper,35.82694,-115.49167,40.83672315139613
36,https://westernmininghistory.com/mine-detail/10124549/,Belle Mine,Nevada,Clark,"4,488 Feet
                    (1,368 Meters)",Copper,35.8269,-115.4917,40.841577597877325
37,https://westernmininghistory.com/mine-detail/10037156/,Belmont-Phoenix Mine,Nevada,Clark,"3,799 Feet
                    (1,158 Meters)",Silver,35.67083,-114.83444,49.951833279346
38,https://westernmininghistory.com/mine-detail/10173453/,Berlock Mine,Nevada,Clark,"3,520 Feet
                    (1,073 Meters)",Gold,35.4586,-114.9144,68.62886190758202
39,https://westernmininghistory.com/mine-detail/10037135/,Big Casino Mine,Nevada,Clark,,"Lead, Copper, Gold",35.46472,-114.85889,69.58531256371221
40,https://westernmininghistory.com/mine-detail/10221522/,Big Horn Claims,Nevada,Clark,"2,329 Feet
                    (710 Meters)",Gold,35.735,-114.7869,46.80945706820579
41,https://westernmininghistory.com/mine-detail/10159660/,Big Thing Tunnel,Nevada,Clark,"3,681 Feet
                    (1,122 Meters)",Gold,36.2514,-114.2128,85.46372745201217
42,https://westernmininghistory.com/mine-detail/10270321/,Big Tiger Prospect,Nevada,Clark,"4,439 Feet
                    (1,353 Meters)",Gold,35.4731,-115.1839,64.3368527192331
43,https://westernmininghistory.com/mine-detail/10037165/,Big Tiger Prospect,Nevada,Clark,"4,301 Feet
                    (1,311 Meters)",Silver,35.47722,-115.17806,63.8430937946496
44,https://westernmininghistory.com/mine-detail/10294264/,Bill Nye Mine,Nevada,Clark,"3,999 Feet
                    (1,219 Meters)",Zinc,35.81,-115.5078,43.14188896715953
45,https://westernmininghistory.com/mine-detail/10008117/,Bill Nye Mine,Nevada,Clark,"3,999 Feet
                    (1,219 Meters)","Zinc, Lead",35.81056,-115.50806,43.12168991245761
46,https://westernmininghistory.com/mine-detail/10149153/,Billy Wilson No. 1 Claim,Nevada,Clark,"3,980 Feet
                    (1,213 Meters)",Uranium,35.7569,-115.5056,46.89102947520928
47,https://westernmininghistory.com/mine-detail/10246783/,Black Hawk Mine,Nevada,Clark,"3,360 Feet
                    (1,024 Meters)",Gold,35.7142,-114.8378,45.772858752196335
48,https://westernmininghistory.com/mine-detail/10037173/,Black Jack Mine,Nevada,Clark,"3,799 Feet
                    (1,158 Meters)",Copper,36.29417,-114.20167,87.758636381122
49,https://westernmininghistory.com/mine-detail/10197336/,Black Jack Mine,Nevada,Clark,"3,839 Feet
                    (1,170 Meters)",Copper,36.2944,-114.2014,87.78947696047702
50,https://westernmininghistory.com/mine-detail/10037194/,Black Mountain Mining Co.,Nevada,Clark,,Gold,35.56167,-114.77667,63.036260571626386
51,https://westernmininghistory.com/mine-detail/10270018/,Black Mtn. Mining Co.,Nevada,Clark,"2,241 Feet
                    (683 Meters)",Gold,35.5644,-114.7806,62.594739833215755
52,https://westernmininghistory.com/mine-detail/10294632/,Black Ridge Prospects,Nevada,Clark,,Copper,36.5808,-114.255,98.22580582786046
53,https://westernmininghistory.com/mine-detail/10294968/,Blackrock No.1 Claim,Nevada,Clark,,Beryllium,36.6583,-114.0525,117.93566702141612
54,https://westernmininghistory.com/mine-detail/10046988/,Blossom Mine,Nevada,Clark,"3,681 Feet
                    (1,122 Meters)","Gold, Silver",35.49111,-114.92361,64.92639637611231
55,https://westernmininghistory.com/mine-detail/10197689/,Blossom Mine,Nevada,Clark,"3,720 Feet
                    (1,134 Meters)",Gold,35.4922,-114.9242,64.79495114087727
56,https://westernmininghistory.com/mine-detail/10047007/,Blue Bell,Nevada,Clark,"3,999 Feet
                    (1,219 Meters)",Copper,36.62972,-114.15667,108.51859158257464
57,https://westernmininghistory.com/mine-detail/10173989/,Blue Bell Lode Claim,Nevada,Clark,"3,999 Feet
                    (1,219 Meters)",Copper,36.6294,-114.1561,108.53869583345751
58,https://westernmininghistory.com/mine-detail/10246569/,Blue Chip,Nevada,Clark,,Uranium,36.3667,-114.125,96.91653614352653
59,https://westernmininghistory.com/mine-detail/10095377/,Blue Jay Mine,Nevada,Clark,,"Lead, Copper, Zinc, Silver, Gold, Cobalt",35.88028,-115.48167,36.744715206768575
60,https://westernmininghistory.com/mine-detail/10257108/,Blue Quartz Mine,Nevada,Clark,"2,119 Feet
                    (646 Meters)",Gold,35.9222,-114.9531,21.44377671347515
61,https://westernmininghistory.com/mine-detail/10047011/,Blue Quartz Mine,Nevada,Clark,,"Gold, Barium-Barite, Copper",35.92222,-114.95306,21.444993457418054
62,https://westernmininghistory.com/mine-detail/10173986/,Bluejay Mine,Nevada,Clark,"4,551 Feet
                    (1,387 Meters)",Lead,35.8769,-115.4819,36.9575362512453
63,https://westernmininghistory.com/mine-detail/10294721/,Bmb No. 1 Claim,Nevada,Clark,"4,265 Feet
                    (1,300 Meters)",Silver,35.6481,-114.8378,51.950484858671466
64,https://westernmininghistory.com/mine-detail/10047002/,Boss Mine,Nevada,Clark,"3,199 Feet
                    (975 Meters)","Gold, Silver, Platinum, Palladium",35.81944,-115.56972,47.06387857926646
65,https://westernmininghistory.com/mine-detail/10270602/,Boss Mine,Nevada,Clark,"3,199 Feet
                    (975 Meters)",Copper,35.8194,-115.5708,47.147860369435016
66,https://westernmininghistory.com/mine-detail/10098362/,Boston Mine,Nevada,Clark,"3,701 Feet
                    (1,128 Meters)","Copper, Gold",35.47806,-114.90028,66.94307839165752
67,https://westernmininghistory.com/mine-detail/10246317/,Boston Mine,Nevada,Clark,"3,638 Feet
                    (1,109 Meters)",Copper,35.4775,-114.8983,67.0580998307419
68,https://westernmininghistory.com/mine-detail/10149339/,Boulder City,Nevada,Clark,"2,201 Feet
                    (671 Meters)",Manganese,35.9458,-114.7897,32.85950499625938
69,https://westernmininghistory.com/mine-detail/10072153/,Boulder City Deposit,Nevada,Clark,"2,241 Feet
                    (683 Meters)",Manganese,35.94583,-114.79,32.83307206426886
70,https://westernmininghistory.com/mine-detail/10197361/,Breyfogle Prospect,Nevada,Clark,"5,413 Feet
                    (1,650 Meters)",Copper,35.6539,-115.1869,44.34106236824207
71,https://westernmininghistory.com/mine-detail/10294972/,Broken Ridge Property,Nevada,Clark,"1,860 Feet
                    (567 Meters)",Uranium,36.5294,-114.5206,76.40294312177298
72,https://westernmininghistory.com/mine-detail/10271238/,Bruna Biasi Well,Nevada,Clark,,Geothermal,36.7561,-114.1583,117.24855735533785
73,https://westernmininghistory.com/mine-detail/10197324/,Budget Group,Nevada,Clark,"5,318 Feet
                    (1,621 Meters)",Gold,35.4497,-115.1256,66.7665691322003
74,https://westernmininghistory.com/mine-detail/10103547/,Budget Group,Nevada,Clark,"5,200 Feet
                    (1,585 Meters)",Gold,35.45028,-115.12306,66.70428433982512
75,https://westernmininghistory.com/mine-detail/10173517/,Bullion Mine,Nevada,Clark,"4,039 Feet
                    (1,231 Meters)",Lead,35.7583,-115.4386,42.64176557209712
76,https://westernmininghistory.com/mine-detail/10103566/,Bullion Mine,Nevada,Clark,"3,999 Feet
                    (1,219 Meters)",Lead,35.75778,-115.43861,42.68642569106045
77,https://westernmininghistory.com/mine-detail/10167473/,Bunkerville Water Users Assoc.,Nevada,Clark,,Geothermal,36.7544,-114.1347,118.70173121715712
78,https://westernmininghistory.com/mine-detail/10037157/,Buster Claim,Nevada,Clark,"2,799 Feet
                    (853 Meters)","Copper, Gold",35.70778,-114.81583,47.51531696911971
79,https://westernmininghistory.com/mine-detail/10221664/,Buster Claim,Nevada,Clark,"2,881 Feet
                    (878 Meters)",Gold,35.7103,-114.8119,47.50458952250155
80,https://westernmininghistory.com/mine-detail/10037166/,Calavada Group,Nevada,Clark,"4,600 Feet
                    (1,402 Meters)",Gold,35.4225,-115.155,69.82136385272099
81,https://westernmininghistory.com/mine-detail/10037195/,Camp Dupont Group,Nevada,Clark,,Gold,35.56167,-114.75139,64.22334272931934
82,https://westernmininghistory.com/mine-detail/10174130/,Camp Dupont Group,Nevada,Clark,,Gold,35.5714,-114.7522,63.270345905089385
83,https://westernmininghistory.com/mine-detail/10310509/,Capitol Camp,Nevada,Clark,"1,801 Feet
                    (549 Meters)",Gold,35.66971,-114.75109,54.444661365162425
84,https://westernmininghistory.com/mine-detail/10125003/,Capitol Camps Mine & Mill,Nevada,Clark,,Gold,35.6828,-114.7853,51.39260023325631
85,https://westernmininghistory.com/mine-detail/10197589/,Carnation Mine,Nevada,Clark,"3,520 Feet
                    (1,073 Meters)",Silver,35.7128,-114.8442,45.570223608182225
86,https://westernmininghistory.com/mine-detail/10037209/,Chaquita Mine,Nevada,Clark,,Gold,35.84,-115.53167,42.94175795575658
87,https://westernmininghistory.com/mine-detail/10037137/,Chief of the Hills,Nevada,Clark,"3,599 Feet
                    (1,097 Meters)",Gold,35.46028,-114.85944,70.03020156359707
88,https://westernmininghistory.com/mine-detail/10149687/,Chiquita Mine,Nevada,Clark,"5,039 Feet
                    (1,536 Meters)",Gold,35.8397,-115.5319,42.97734081570969
89,https://westernmininghistory.com/mine-detail/10037210/,Christmas Group,Nevada,Clark,"3,999 Feet
                    (1,219 Meters)","Lead, Zinc",35.72417,-115.45778,46.668600794419184
90,https://westernmininghistory.com/mine-detail/10221431/,Christmas Mine,Nevada,Clark,"3,999 Feet
                    (1,219 Meters)",Lead,35.7261,-115.4569,46.45182264448542
91,https://westernmininghistory.com/mine-detail/10174025/,Clarence Lewis Well,Nevada,Clark,,Geothermal,36.7367,-114.7375,84.09289733784802
92,https://westernmininghistory.com/mine-detail/10246215/,Clementina Mine,Nevada,Clark,,Gold,35.8339,-115.5222,42.60920724197327
93,https://westernmininghistory.com/mine-detail/10037211/,Clementina Mine,Nevada,Clark,"4,800 Feet
                    (1,463 Meters)","Gold, Silver",35.83639,-115.52194,42.43373770660889
94,https://westernmininghistory.com/mine-detail/10124687/,Cobalt Claims,Nevada,Clark,"2,461 Feet
                    (750 Meters)",Copper,35.5694,-114.7883,61.76438328782493
95,https://westernmininghistory.com/mine-detail/10037167/,Colonel Sellers,Nevada,Clark,,Gold,35.51972,-115.18028,59.14289355259084
96,https://westernmininghistory.com/mine-detail/10294571/,Colonel Sellers Claim,Nevada,Clark,,Gold,35.5233,-115.1761,58.71885364826073
97,https://westernmininghistory.com/mine-detail/10037212/,Columbia Mine,Nevada,Clark,"4,600 Feet
                    (1,402 Meters)",Copper,35.82028,-115.47528,40.143428753104864
98,https://westernmininghistory.com/mine-detail/10197407/,Columbia Mine,Nevada,Clark,"4,790 Feet
                    (1,460 Meters)",,35.8206,-115.475,40.101288476103434
99,https://westernmininghistory.com/mine-detail/10173531/,Combination Lode,Nevada,Clark,"3,839 Feet
                    (1,170 Meters)",Zinc,35.7667,-115.4411,42.08326130296841
100,https://westernmininghistory.com/mine-detail/10270026/,Combination Mine,Nevada,Clark,"4,321 Feet
                    (1,317 Meters)",Gold,35.685,-114.8492,47.90837703742698
101,https://westernmininghistory.com/mine-detail/10008115/,Contact Mine,Nevada,Clark,"5,600 Feet
                    (1,707 Meters)",Zinc,35.93111,-115.4725,33.41674948120673
102,https://westernmininghistory.com/mine-detail/10197645/,Contact Mine,Nevada,Clark,"5,600 Feet
                    (1,707 Meters)",Zinc,35.9319,-115.4719,33.332304574837835
103,https://westernmininghistory.com/mine-detail/10246582/,Continental Heap Leach,Nevada,Clark,"3,560 Feet
                    (1,085 Meters)",Gold,35.4719,-114.9297,66.82313009613107
104,https://westernmininghistory.com/mine-detail/10047156/,Continental Heap Leach,Nevada,Clark,,"Silver, Gold",35.46611,-114.92806,67.48309908744152
105,https://westernmininghistory.com/mine-detail/10221549/,Copper Canyon Mine,Nevada,Clark,,Copper,35.6978,-114.8383,47.249103831390016
106,https://westernmininghistory.com/mine-detail/10067837/,Copper Chief,Nevada,Clark,,,35.82167,-115.54833,45.32149152901956
107,https://westernmininghistory.com/mine-detail/10270007/,Copper Chief Mine,Nevada,Clark,,Cobalt,35.8214,-115.55,45.462925167653744
108,https://westernmininghistory.com/mine-detail/10246246/,Copper Flower Mine,Nevada,Clark,"3,120 Feet
                    (951 Meters)",Copper,35.7889,-115.5492,47.52807698350545
109,https://westernmininghistory.com/mine-detail/10037213/,Copper Glance Mine,Nevada,Clark,,Copper,35.85111,-115.485,38.76295946840881
110,https://westernmininghistory.com/mine-detail/10294647/,Copper Glance Mine,Nevada,Clark,"4,478 Feet
                    (1,365 Meters)",Copper,35.8403,-115.4958,40.25149259335723
111,https://westernmininghistory.com/mine-detail/10047001/,Copper Hill Claims,Nevada,Clark,,Copper,35.64167,-115.41556,52.1403526952204
112,https://westernmininghistory.com/mine-detail/10221904/,Copperside Mine,Nevada,Clark,,Copper,35.825,-115.5486,45.134555573456986
113,https://westernmininghistory.com/mine-detail/10103567/,Copperside Mine,Nevada,Clark,,Copper,35.82444,-115.54694,45.04504738034143
114,https://westernmininghistory.com/mine-detail/10221686/,Cosmopolitan Claim,Nevada,Clark,"4,521 Feet
                    (1,378 Meters)",Copper,35.8286,-115.4897,40.583450599601285
115,https://westernmininghistory.com/mine-detail/10037214/,Cosmopolitan Claim,Nevada,Clark,,Copper,35.82583,-115.48944,40.753068100763116
116,https://westernmininghistory.com/mine-detail/10124434/,Cottonwood Iron Claim,Nevada,Clark,"3,599 Feet
                    (1,097 Meters)",Iron,35.7194,-114.8417,45.097457634112
117,https://westernmininghistory.com/mine-detail/10294915/,Cottonwood Mine,Nevada,Clark,"4,199 Feet
                    (1,280 Meters)",Gold,35.2464,-114.7622,95.39495244883311
118,https://westernmininghistory.com/mine-detail/10037196/,Cottonwood Mine,Nevada,Clark,,"Gold, Silver",35.26889,-114.74028,93.78269759592116
119,https://westernmininghistory.com/mine-detail/10246838/,Coyote Mine & Mill,Nevada,Clark,,Gold,35.4931,-114.9625,63.78639967364091
120,https://westernmininghistory.com/mine-detail/10221675/,Coyote Mine & Mill,Nevada,Clark,,Gold,35.4914,-114.925,64.8593924647436
121,https://westernmininghistory.com/mine-detail/10294469/,Crystal Deposit,Nevada,Clark,,Silica,36.6,-114.895,64.70817611000307
122,https://westernmininghistory.com/mine-detail/10221844/,Crystal Lode,Nevada,Clark,"2,215 Feet
                    (675 Meters)",Gold,35.58,-114.7831,60.986275418541624
123,https://westernmininghistory.com/mine-detail/10037215/,Crystal Pass Prospect,Nevada,Clark,,Silver,35.79583,-115.43194,39.13725251100307
124,https://westernmininghistory.com/mine-detail/10124860/,Crystal Pass Prospects,Nevada,Clark,"3,839 Feet
                    (1,170 Meters)",Silver,35.7994,-115.4325,38.88612577019899
125,https://westernmininghistory.com/mine-detail/10173508/,Cumberland Group,Nevada,Clark,"4,239 Feet
                    (1,292 Meters)",Gold,35.4761,-115.1806,63.982841449538824
126,https://westernmininghistory.com/mine-detail/10037032/,Cumberland Group,Nevada,Clark,,"Molybdenum, Gold, Silver, Lead, Copper",35.51083,-115.19167,60.21273027796083
127,https://westernmininghistory.com/mine-detail/10037136/,Cyrus Noble,Nevada,Clark,"3,399 Feet
                    (1,036 Meters)",Silver,35.45472,-114.93056,68.64316720052791
128,https://westernmininghistory.com/mine-detail/10149229/,Cyrus Noble Mine,Nevada,Clark,"3,451 Feet
                    (1,052 Meters)",Silver,35.4578,-114.93,68.32623911928147
129,https://westernmininghistory.com/mine-detail/10149765/,Danial Boone Prospect,Nevada,Clark,"3,599 Feet
                    (1,097 Meters)",Lead,35.8947,-115.6311,48.17101875940359
130,https://westernmininghistory.com/mine-detail/10037216/,Dawn Mine,Nevada,Clark,"5,600 Feet
                    (1,707 Meters)","Zinc, Lead",35.945,-115.46389,32.11056968096149
131,https://westernmininghistory.com/mine-detail/10221649/,Dawn Mine,Nevada,Clark,"5,499 Feet
                    (1,676 Meters)",Lead,35.9453,-115.4631,32.03218065962501
132,https://westernmininghistory.com/mine-detail/10270178/,Dawn Rena'E Mine,Nevada,Clark,,Gold,35.5164,-115.1242,59.35138208241519
133,https://westernmininghistory.com/mine-detail/10221679/,Desert Valley Prospect,Nevada,Clark,"3,159 Feet
                    (963 Meters)",Copper,35.8928,-115.6561,50.351004291175755
134,https://westernmininghistory.com/mine-detail/10149776/,Dolores Mine,Nevada,Clark,"3,281 Feet
                    (1,000 Meters)",Gold,35.7189,-114.8564,44.39024222975046
135,https://westernmininghistory.com/mine-detail/10192060/,Double O Mill,Nevada,Clark,,Gold,35.9486,-114.9097,22.92098219243645
136,https://westernmininghistory.com/mine-detail/10037168/,Double Standard Mine,Nevada,Clark,,"Gold, Silver",35.55583,-115.19056,55.22130844130171
137,https://westernmininghistory.com/mine-detail/10270196/,Double Standard Mine,Nevada,Clark,"5,200 Feet
                    (1,585 Meters)",Gold,35.5486,-115.2,56.108990861895876
138,https://westernmininghistory.com/mine-detail/10037217/,Doubleup Mine,Nevada,Clark,"7,280 Feet
                    (2,219 Meters)","Copper, Zinc",35.94444,-115.48611,34.00171509752949
139,https://westernmininghistory.com/mine-detail/10246642/,Doubleup Mine,Nevada,Clark,"7,359 Feet
                    (2,243 Meters)",Copper,35.9447,-115.4858,33.96550864810528
140,https://westernmininghistory.com/mine-detail/10305645/,Dry Springs Prospect,Nevada,Clark,"4,790 Feet
                    (1,460 Meters)",Copper,35.6575,-115.2053,44.16266974390915
141,https://westernmininghistory.com/mine-detail/10046990/,Duplex Mine,Nevada,Clark,"3,599 Feet
                    (1,097 Meters)","Gold, Silver, Lead",35.46,-114.92111,68.30892293891182
142,https://westernmininghistory.com/mine-detail/10270597/,Duplex Mine,Nevada,Clark,"3,638 Feet
                    (1,109 Meters)",Gold,35.4597,-114.9208,68.34875247267904
143,https://westernmininghistory.com/mine-detail/10037201/,Ebony Queen Deposit,Nevada,Clark,"2,799 Feet
                    (853 Meters)",Manganese,35.98778,-114.86472,24.970099271888206
144,https://westernmininghistory.com/mine-detail/10124332/,Ebony Queen Mine,Nevada,Clark,"3,002 Feet
                    (915 Meters)",,35.9906,-114.8664,24.738834007985467
145,https://westernmininghistory.com/mine-detail/10124973/,El Diablo Mine & Mill,Nevada,Clark,,Gold,35.6831,-114.8906,46.22321843187956
146,https://westernmininghistory.com/mine-detail/10103559/,Eldorado Crown Mining Co.,Nevada,Clark,"2,201 Feet
                    (671 Meters)","Gold, Silver",35.70417,-114.78444,49.57125196622256
147,https://westernmininghistory.com/mine-detail/10294375/,Eldorado Crown Mining Co.,Nevada,Clark,"2,201 Feet
                    (671 Meters)",Gold,35.7036,-114.78,49.87354422962723
148,https://westernmininghistory.com/mine-detail/60001652/,Eldorado District,Nevada,Clark,,"Gold, Silver, Zinc",35.7056,-114.7986,48.65119073152499
149,https://westernmininghistory.com/mine-detail/10037160/,Eldorado Empire Mining Co.,Nevada,Clark,"3,399 Feet
                    (1,036 Meters)",Gold,35.70806,-114.84278,46.07755025646479
150,https://westernmininghistory.com/mine-detail/10310510/,Eldorado Gold Property,Nevada,Clark,"3,379 Feet
                    (1,030 Meters)","Silver, Gold",35.71,-114.84,46.041838776840414
151,https://westernmininghistory.com/mine-detail/10197440/,Eldorado Project,Nevada,Clark,,Gold,35.6111,-114.9083,52.80001233187618
152,https://westernmininghistory.com/mine-detail/10103558/,Eldorado Rand Group,Nevada,Clark,"3,599 Feet
                    (1,097 Meters)",Gold,35.70361,-114.86111,45.58384927365351
153,https://westernmininghistory.com/mine-detail/10037159/,Eldorado Rover Mining Co.,Nevada,Clark,"2,402 Feet
                    (732 Meters)",Gold,35.7025,-114.79778,48.96876543487092
154,https://westernmininghistory.com/mine-detail/10221457/,Emerald Prospect,Nevada,Clark,"6,640 Feet
                    (2,024 Meters)",Copper,36.1911,-115.5111,37.53119286344591
155,https://westernmininghistory.com/mine-detail/10221434/,Empire Mine,Nevada,Clark,"2,641 Feet
                    (805 Meters)",Silver,35.3181,-114.7211,89.43760069243741
156,https://westernmininghistory.com/mine-detail/10246908/,Envirochem Mill,Nevada,Clark,,Copper,36.8175,-114.0653,127.97448846580184
157,https://westernmininghistory.com/mine-detail/10149295/,Erie Deposit,Nevada,Clark,"3,520 Feet
                    (1,073 Meters)",Silica,35.8583,-115.3092,26.66411453363074
158,https://westernmininghistory.com/mine-detail/10037174/,Eureka Mine,Nevada,Clark,,Gold,36.10361,-114.15194,88.22916255590218
159,https://westernmininghistory.com/mine-detail/10294959/,Eureka Mine,Nevada,Clark,"1,549 Feet
                    (472 Meters)",Gold,36.105,-114.1531,88.1349406605768
160,https://westernmininghistory.com/mine-detail/10246834/,Eureka Mine,Nevada,Clark,,Uranium,35.7431,-115.4603,45.199497009248844
161,https://westernmininghistory.com/mine-detail/10197443/,Fannie Ryan,Nevada,Clark,"2,001 Feet
                    (610 Meters)",,36.085,-114.8908,21.97432516554959
162,https://westernmininghistory.com/mine-detail/10037202/,Fannie Ryan Deposit,Nevada,Clark,,Manganese,36.08667,-114.895,21.63673146294228
163,https://westernmininghistory.com/mine-detail/10014356/,Farmers Group of Claims,Nevada,Clark,"2,799 Feet
                    (853 Meters)","Tungsten, Gold, Silver, Lead",35.95,-114.99167,16.794699171454994
164,https://westernmininghistory.com/mine-detail/10149854/,Fifty-Fifty Group,Nevada,Clark,,Uranium,36.2778,-114.4861,63.22302859327104
165,https://westernmininghistory.com/mine-detail/10047008/,First Chance Prospect ?,Nevada,Clark,,Uranium,36.25417,-114.23417,83.69508265481632
166,https://westernmininghistory.com/mine-detail/10103568/,Fitzhugh Lee Mine,Nevada,Clark,"3,799 Feet
                    (1,158 Meters)",Copper,35.8175,-115.53889,44.88659062433119
167,https://westernmininghistory.com/mine-detail/10294655/,Fitzhugh Lee Mine,Nevada,Clark,,Copper,35.8222,-115.5297,43.90837448550047
168,https://westernmininghistory.com/mine-detail/10047004/,Five Star Lead Property,Nevada,Clark,"5,919 Feet
                    (1,804 Meters)","Lead, Silver",36.31389,-115.8425,70.23417689549562
169,https://westernmininghistory.com/mine-detail/10246399/,Five Star Mine,Nevada,Clark,"5,928 Feet
                    (1,807 Meters)",Gold,36.3122,-115.8358,69.60998742539691
170,https://westernmininghistory.com/mine-detail/10246341/,Florence Mine,Nevada,Clark,"1,680 Feet
                    (512 Meters)",Silica,36.475,-114.4681,75.95455351782651
171,https://westernmininghistory.com/mine-detail/10294478/,Fred,Nevada,Clark,"2,493 Feet
                    (760 Meters)",Gold,35.7106,-114.8078,47.702915460165876
172,https://westernmininghistory.com/mine-detail/10124847/,Fredrickson Mine,Nevada,Clark,"4,400 Feet
                    (1,341 Meters)",Zinc,35.8203,-115.4797,40.449683674696615
173,https://westernmininghistory.com/mine-detail/10098675/,Fredrickson Mine,Nevada,Clark,"4,400 Feet
                    (1,341 Meters)","Gold, Silver, Zinc, Lead",35.82,-115.47806,40.35652910003527
174,https://westernmininghistory.com/mine-detail/10246541/,Frenchman Mine,Nevada,Clark,"2,041 Feet
                    (622 Meters)",Copper,36.1522,-115.0025,16.218153350752413
175,https://westernmininghistory.com/mine-detail/10294372/,Fry and Jeffers Prospect,Nevada,Clark,,Uranium,36.8283,-114.7972,91.5489114299971
176,https://westernmininghistory.com/mine-detail/10232298/,Geneva Mill,Nevada,Clark,,Gold,35.4639,-114.8917,68.68146056112155
177,https://westernmininghistory.com/mine-detail/10174044/,Gethell Prospect,Nevada,Clark,,Gold,36.1819,-114.1931,85.55153655954729
178,https://westernmininghistory.com/mine-detail/10048519/,Gingerload,Nevada,Clark,"5,249 Feet
                    (1,600 Meters)","Gold, Silver, Zinc, Lead, Copper",35.48111,-115.12889,63.272272990088815
179,https://westernmininghistory.com/mine-detail/10197280/,Gold Butte Mine,Nevada,Clark,"3,921 Feet
                    (1,195 Meters)",Gold,36.2769,-114.1953,87.74035121988898
180,https://westernmininghistory.com/mine-detail/10037175/,Gold Butte Mine,Nevada,Clark,"3,999 Feet
                    (1,219 Meters)",Gold,36.27444,-114.19194,87.95260507931488
181,https://westernmininghistory.com/mine-detail/10149517/,Gold Butte Prospect,Nevada,Clark,"3,215 Feet
                    (980 Meters)",Gold,36.5431,-114.1644,102.54531834723446
182,https://westernmininghistory.com/mine-detail/10221605/,Gold Crown Mine & Mill,Nevada,Clark,,Gold,36.2669,-114.2175,85.51840381315039
183,https://westernmininghistory.com/mine-detail/10310508/,Gold Group,Nevada,Clark,,Gold,35.46857,-115.12793,64.6670151743342
184,https://westernmininghistory.com/mine-detail/10221726/,Gold Mine,Nevada,Clark,,Gold,35.9778,-114.9258,20.169065893089954
185,https://westernmininghistory.com/mine-detail/10173773/,Gold Prospect,Nevada,Clark,"2,080 Feet
                    (634 Meters)",Gold,35.9244,-114.9531,21.282119246125053
186,https://westernmininghistory.com/mine-detail/10221595/,Gold Prospect,Nevada,Clark,"2,680 Feet
                    (817 Meters)",Gold,35.98,-114.9186,20.670781197858762
187,https://westernmininghistory.com/mine-detail/10037146/,Gold Prospects,Nevada,Clark,"2,402 Feet
                    (732 Meters)","Silver, Gold",35.97972,-114.91917,20.635135163815786
188,https://westernmininghistory.com/mine-detail/10294494/,Golden,Nevada,Clark,"3,839 Feet
                    (1,170 Meters)",Gold,36.2792,-114.2042,87.04872289100346
189,https://westernmininghistory.com/mine-detail/10124703/,Golden Chariot Mine,Nevada,Clark,,Gold,35.8314,-115.525,42.97472253879428
190,https://westernmininghistory.com/mine-detail/10038077/,Golden Chariot Mine,Nevada,Clark,"4,839 Feet
                    (1,475 Meters)",Gold,35.83778,-115.52389,42.49294292928755
191,https://westernmininghistory.com/mine-detail/10173941/,Golden Dawn's Mine,Nevada,Clark,,Gold,35.4519,-114.9333,68.88113953947486
192,https://westernmininghistory.com/mine-detail/10084966/,Golden Dawn's Mine,Nevada,Clark,,Gold,35.43333,-114.9,71.69506507330549
193,https://westernmininghistory.com/mine-detail/10037161/,Golden Empire,Nevada,Clark,"4,400 Feet
                    (1,341 Meters)",Gold,35.68111,-114.84972,48.25114717856205
194,https://westernmininghistory.com/mine-detail/10149785/,Golden Empire,Nevada,Clark,"4,400 Feet
                    (1,341 Meters)",Gold,35.6819,-114.8972,46.06561963637892
195,https://westernmininghistory.com/mine-detail/10270658/,Golden Glow & Carnotite Lode,Nevada,Clark,,Uranium,36.5461,-114.5006,78.97834795805396
196,https://westernmininghistory.com/mine-detail/10037197/,Goldenrod Group,Nevada,Clark,,Gold,35.34917,-114.74083,85.55235337968271
197,https://westernmininghistory.com/mine-detail/10124563/,Goldenrod Mine,Nevada,Clark,"2,362 Feet
                    (720 Meters)",Gold,35.3489,-114.7408,85.58084752327612
198,https://westernmininghistory.com/mine-detail/10037138/,Good Hope Mine,Nevada,Clark,"3,599 Feet
                    (1,097 Meters)",Gold,35.45611,-114.92278,68.68320477044733
199,https://westernmininghistory.com/mine-detail/10246618/,Good Hope Mine,Nevada,Clark,"3,481 Feet
                    (1,061 Meters)",Gold,35.4556,-114.9233,68.72492036473827
200,https://westernmininghistory.com/mine-detail/10310512/,Goodsprings Deposit,Nevada,Clark,"4,921 Feet
                    (1,500 Meters)",Gold,35.83512,-115.52178,42.50131602088821
201,https://westernmininghistory.com/mine-detail/60000185/,Goodsprings District (Several Mines),Nevada,Clark,,"Vanadium, Lead, Zinc, Copper",35.8333,-115.5,41.01404828414704
202,https://westernmininghistory.com/mine-detail/10221467/,Goodsprings Occurrence,Nevada,Clark,,Uranium,35.8611,-115.4403,34.851415154571995
203,https://westernmininghistory.com/mine-detail/10197598/,Gordon Barite,Nevada,Clark,"2,441 Feet
                    (744 Meters)",Barium-Barite,36.0056,-114.8381,26.840166792427265
204,https://westernmininghistory.com/mine-detail/10038078/,Great Eastern,Nevada,Clark,"4,259 Feet
                    (1,298 Meters)",Copper,36.62556,-114.14694,108.9505817548424
205,https://westernmininghistory.com/mine-detail/10246660/,Great Eastern Mine,Nevada,Clark,"4,400 Feet
                    (1,341 Meters)",Nickel,36.6256,-114.1469,108.95607528544313
206,https://westernmininghistory.com/mine-detail/10037218/,Green Copper Mine,Nevada,Clark,"4,639 Feet
                    (1,414 Meters)",Copper,35.85111,-115.485,38.76295946840881
207,https://westernmininghistory.com/mine-detail/10173791/,Green Copper Mine,Nevada,Clark,"4,639 Feet
                    (1,414 Meters)",Copper,35.8517,-115.485,38.72544564176806
208,https://westernmininghistory.com/mine-detail/10271046/,Green Monster,Nevada,Clark,"2,920 Feet
                    (890 Meters)",Copper,36.3569,-114.2492,86.19656685621855
209,https://westernmininghistory.com/mine-detail/10197251/,Green Monster Mine,Nevada,Clark,"3,199 Feet
                    (975 Meters)",Zinc,35.8892,-115.6481,49.81992441144573
210,https://westernmininghistory.com/mine-detail/10037219/,Green Monster Mine,Nevada,Clark,"3,199 Feet
                    (975 Meters)",Zinc,35.88861,-115.64722,49.76982174861267
211,https://westernmininghistory.com/mine-detail/10037148/,Griffith Mine,Nevada,Clark,"7,999 Feet
                    (2,438 Meters)",Lead,36.27139,-115.63611,51.55546727243051
212,https://westernmininghistory.com/mine-detail/10270447/,Griffith Mine,Nevada,Clark,"8,081 Feet
                    (2,463 Meters)",Lead,36.2711,-115.6358,51.515697955895305
213,https://westernmininghistory.com/mine-detail/10197172/,Gudice Claims,Nevada,Clark,,Copper,36.3414,-114.1747,91.75872209717652
214,https://westernmininghistory.com/mine-detail/10037176/,Gudice Claims,Nevada,Clark,"5,246 Feet
                    (1,599 Meters)",Copper,36.33667,-114.17667,91.41112325031472
215,https://westernmininghistory.com/mine-detail/10124809/,Gypsum Cave Mine,Nevada,Clark,"1,959 Feet
                    (597 Meters)",Gypsum-Anhydrite,36.2239,-114.8994,28.418104415356392
216,https://westernmininghistory.com/mine-detail/10149469/,Hacienda Prospect,Nevada,Clark,"4,692 Feet
                    (1,430 Meters)",Copper,35.6764,-115.1669,41.679236854091535
217,https://westernmininghistory.com/mine-detail/10246770/,Hafen Dairy Well,Nevada,Clark,,Geothermal,36.7978,-114.1125,123.38134898714429
218,https://westernmininghistory.com/mine-detail/10149328/,Hardy Mine,Nevada,Clark,,Silver,35.6856,-114.8139,49.61558908829397
219,https://westernmininghistory.com/mine-detail/10149612/,Hart Mine,Nevada,Clark,,Silver,35.4808,-115.1586,63.35371695496896
220,https://westernmininghistory.com/mine-detail/10294997/,Hatchet Mine,Nevada,Clark,,Lead,35.8978,-115.6367,48.51950461540781
221,https://westernmininghistory.com/mine-detail/10037031/,Hermosa Claim,Nevada,Clark,"4,400 Feet
                    (1,341 Meters)",Lead,35.82,-115.48889,41.115157235107844
222,https://westernmininghistory.com/mine-detail/10149171/,Hermosa Mine,Nevada,Clark,"4,400 Feet
                    (1,341 Meters)",Lead,35.8111,-115.4883,41.6987159337989
223,https://westernmininghistory.com/mine-detail/10103569/,Highline and Red Streak Claims,Nevada,Clark,,Copper,35.83111,-115.55056,44.90824290457357
224,https://westernmininghistory.com/mine-detail/10221820/,Highline Mine,Nevada,Clark,"4,888 Feet
                    (1,490 Meters)",,35.8314,-115.5506,44.89373257059399
225,https://westernmininghistory.com/mine-detail/10090623/,Hilltop Claim,Nevada,Clark,,"REE, Niobium (Columbium), Tantalum",36.26667,-114.2,87.01995557260122
226,https://westernmininghistory.com/mine-detail/10246663/,Hilltop Mine,Nevada,Clark,"4,859 Feet
                    (1,481 Meters)",Uranium,36.2744,-114.1847,88.57483077101645
227,https://westernmininghistory.com/mine-detail/10037178/,Hilltop Mine,Nevada,Clark,"4,800 Feet
                    (1,463 Meters)",Uranium,36.27333,-114.18361,88.63589782873487
228,https://westernmininghistory.com/mine-detail/10037151/,Hodges Whorton Tungsten Prospect,Nevada,Clark,"2,500 Feet
                    (762 Meters)",Tungsten,36.61333,-114.25389,100.50528256030529
229,https://westernmininghistory.com/mine-detail/10173920/,Hogback,Nevada,Clark,,Manganese,35.8447,-115.0711,23.47951066521612
230,https://westernmininghistory.com/mine-detail/10037198/,Homestake Group,Nevada,Clark,"1,001 Feet
                    (305 Meters)",Gold,35.20194,-114.59556,106.02354602134048
231,https://westernmininghistory.com/mine-detail/10221811/,Homestake Group,Nevada,Clark,"840 Feet
                    (256 Meters)",Gold,35.1856,-114.5953,107.65579175397014
232,https://westernmininghistory.com/mine-detail/10173922/,Hoodoo Mine,Nevada,Clark,"2,881 Feet
                    (878 Meters)",Zinc,35.7914,-115.5517,47.537241271538996
233,https://westernmininghistory.com/mine-detail/10008118/,Hoodoo Mine,Nevada,Clark,"2,881 Feet
                    (878 Meters)",Zinc,35.79194,-115.55028,47.399015661711076
234,https://westernmininghistory.com/mine-detail/10098364/,Hoosier Mine,Nevada,Clark,"4,199 Feet
                    (1,280 Meters)","Lead, Zinc",35.80222,-115.49111,42.52864609468091
235,https://westernmininghistory.com/mine-detail/10294527/,Hoosier Mine,Nevada,Clark,"4,160 Feet
                    (1,268 Meters)",Lead,35.8019,-115.4906,42.51682852771149
236,https://westernmininghistory.com/mine-detail/10270200/,Horse Springs Group,Nevada,Clark,,Uranium,36.3111,-114.1458,93.10109615365434
237,https://westernmininghistory.com/mine-detail/10173720/,Houghton Mine,Nevada,Clark,"3,839 Feet
                    (1,170 Meters)",Zinc,35.7719,-115.4403,41.6031894725799
238,https://westernmininghistory.com/mine-detail/10037220/,Houghton Mine,Nevada,Clark,"3,999 Feet
                    (1,219 Meters)",Zinc,35.77167,-115.44,41.60418741267223
239,https://westernmininghistory.com/mine-detail/10294355/,Humdinger,Nevada,Clark,"3,199 Feet
                    (975 Meters)",Uranium,35.8319,-115.3078,28.998132609805584
240,https://westernmininghistory.com/mine-detail/10124686/,Imperial Silica Sand Co.,Nevada,Clark,,Silica,36.4672,-114.4653,75.61862870028342
241,https://westernmininghistory.com/mine-detail/10246230/,Ingomar & Milford No. 2 Mines,Nevada,Clark,"3,120 Feet
                    (951 Meters)",Zinc,35.7125,-115.5056,50.45520259957271
242,https://westernmininghistory.com/mine-detail/10037221/,Ingomar and Milford No. 2 Mines,Nevada,Clark,,"Zinc, Lead",35.70611,-115.48778,49.94002798764273
243,https://westernmininghistory.com/mine-detail/10221710/,Ireland Mine,Nevada,Clark,"3,360 Feet
                    (1,024 Meters)",Lead,35.7619,-115.4175,41.120960516974755
244,https://westernmininghistory.com/mine-detail/10037222/,Ireland Mine,Nevada,Clark,"3,399 Feet
                    (1,036 Meters)","Lead, Copper",35.76194,-115.41722,41.10169320893978
245,https://westernmininghistory.com/mine-detail/10173493/,Iron Age Claims,Nevada,Clark,"3,999 Feet
                    (1,219 Meters)",Lead,36.2342,-115.3681,29.504723306143056
246,https://westernmininghistory.com/mine-detail/10037149/,Iron Age Claims,Nevada,Clark,,"Lead, Zinc",36.23778,-115.3725,30.065094548033716
247,https://westernmininghistory.com/mine-detail/10294802/,Iron Gold Mine,Nevada,Clark,"4,236 Feet
                    (1,291 Meters)",Gold,35.8419,-115.4756,38.677031971705524
248,https://westernmininghistory.com/mine-detail/10149644/,Ironside,Nevada,Clark,"3,599 Feet
                    (1,097 Meters)",Copper,35.8319,-115.5611,45.661463361649716
249,https://westernmininghistory.com/mine-detail/10037223/,Ironside Mine,Nevada,Clark,,Copper,35.83139,-115.56083,45.67115590624479
250,https://westernmininghistory.com/mine-detail/10246452/,J and S Group,Nevada,Clark,"8,520 Feet
                    (2,597 Meters)",Lead,36.3444,-115.6564,57.355427517024026
251,https://westernmininghistory.com/mine-detail/10221483/,J E T Mine,Nevada,Clark,"3,750 Feet
                    (1,143 Meters)",Gold,35.4972,-114.9111,64.6163891374954
252,https://westernmininghistory.com/mine-detail/10037139/,J. E. T.,Nevada,Clark,"3,701 Feet
                    (1,128 Meters)",Gold,35.49833,-114.91194,64.47348516952201
253,https://westernmininghistory.com/mine-detail/10037199/,Jackdaw Group,Nevada,Clark,"3,199 Feet
                    (975 Meters)",Silver,35.29444,-114.73694,91.27257000968274
254,https://westernmininghistory.com/mine-detail/10294296/,Jackdaw Groupe,Nevada,Clark,"2,461 Feet
                    (750 Meters)",Silver,35.3167,-114.7322,89.16934524654839
255,https://westernmininghistory.com/mine-detail/10174182/,Jean Carnotite Prospect,Nevada,Clark,,Uranium,35.8306,-115.2889,28.227629748209985
256,https://westernmininghistory.com/mine-detail/10221653/,Jean Deposits,Nevada,Clark,"3,018 Feet
                    (920 Meters)",,35.8117,-115.3022,30.647214315934875
257,https://westernmininghistory.com/mine-detail/10124982/,Jean-Sloan Area Uranium Loc.17 & 18,Nevada,Clark,"3,028 Feet
                    (923 Meters)",Uranium,35.8056,-115.2828,30.414361154246063
258,https://westernmininghistory.com/mine-detail/10197793/,Jean-Sloan Area Uranium Locality 1,Nevada,Clark,,Uranium,35.9833,-115.2347,11.893746989194991
259,https://westernmininghistory.com/mine-detail/10124742/,Jean-Sloan Area Uranium Locality 16,Nevada,Clark,,Uranium,35.8278,-115.2833,28.250029623867423
260,https://westernmininghistory.com/mine-detail/10135599/,Jean-Sloan Area Uranium Locality 6,Nevada,Clark,,Uranium,35.9181,-115.225,16.92290125197618
261,https://westernmininghistory.com/mine-detail/10221965/,Jean-Sloan Area Uranium Locality 7,Nevada,Clark,"2,930 Feet
                    (893 Meters)",Uranium,35.9144,-115.2203,17.0791115225226
262,https://westernmininghistory.com/mine-detail/10149239/,Jean-Sloan Area Uranium Location 14,Nevada,Clark,,Uranium,35.8797,-115.2297,20.912279320559286
263,https://westernmininghistory.com/mine-detail/10294441/,Jean-Sloan Area Uranium Location 15,Nevada,Clark,,Uranium,35.8556,-115.2589,24.484607797329048
264,https://westernmininghistory.com/mine-detail/10174198/,Jean-Sloan Area Uranium Location 3,Nevada,Clark,"2,671 Feet
                    (814 Meters)",Uranium,35.9639,-115.2119,12.01269919227604
265,https://westernmininghistory.com/mine-detail/10197378/,Jean-Sloan Area Uranium Location 4,Nevada,Clark,,Uranium,35.9436,-115.2222,14.386490471531006
266,https://westernmininghistory.com/mine-detail/10149845/,Jean-Sloan Area Uranium Location 5,Nevada,Clark,"2,936 Feet
                    (895 Meters)",Uranium,35.9181,-115.2222,16.799005676854378
267,https://westernmininghistory.com/mine-detail/10197363/,Jean-Sloan Area Uranium Location 8,Nevada,Clark,"2,976 Feet
                    (907 Meters)",Uranium,35.9103,-115.2181,17.39373373773968
268,https://westernmininghistory.com/mine-detail/10149490/,Jean-Sloan Uranium Localities 9-13,Nevada,Clark,"3,035 Feet
                    (925 Meters)",Uranium,35.8944,-115.225,19.254294520478027
269,https://westernmininghistory.com/mine-detail/10197792/,Jean-Sloan Uranium Locality 20,Nevada,Clark,"3,501 Feet
                    (1,067 Meters)",Uranium,35.8675,-115.2908,24.86164434154224
270,https://westernmininghistory.com/mine-detail/10246666/,Jenko Mine & Mill,Nevada,Clark,,Gold,35.6797,-114.8161,50.04074129578317
271,https://westernmininghistory.com/mine-detail/10046982/,Jetco Claims,Nevada,Clark,"2,300 Feet
                    (701 Meters)",Gold,35.29444,-114.73694,91.27257000968274
272,https://westernmininghistory.com/mine-detail/10294445/,Jetco Mill,Nevada,Clark,,Gold,35.3183,-114.7361,88.86440089203712
273,https://westernmininghistory.com/mine-detail/10197298/,Joker Mine,Nevada,Clark,"1,601 Feet
                    (488 Meters)",Gold,36.0919,-114.1669,86.81486367463295
274,https://westernmininghistory.com/mine-detail/10037179/,Jokermine,Nevada,Clark,"1,601 Feet
                    (488 Meters)",Copper,36.09278,-114.16667,86.8403102079221
275,https://westernmininghistory.com/mine-detail/10037162/,Jubilee Mine,Nevada,Clark,"2,201 Feet
                    (671 Meters)",Gold,35.70556,-114.78611,49.35624343521639
276,https://westernmininghistory.com/mine-detail/10221756/,Jubilee Mine,Nevada,Clark,"2,159 Feet
                    (658 Meters)",Gold,35.705,-114.7836,49.54739808140128
277,https://westernmininghistory.com/mine-detail/10124823/,Jumbo Mine,Nevada,Clark,"1,844 Feet
                    (562 Meters)",Gold,36.1044,-114.1672,86.86654322006633
278,https://westernmininghistory.com/mine-detail/10037180/,Jumbo Prospect,Nevada,Clark,"2,001 Feet
                    (610 Meters)",Gold,36.10583,-114.17111,86.52646057282139
279,https://westernmininghistory.com/mine-detail/10037154/,June Bug Mine,Nevada,Clark,"3,199 Feet
                    (975 Meters)","Lead, Zinc",36.365,-115.17194,35.20024118950639
280,https://westernmininghistory.com/mine-detail/10124343/,June Bug Mine,Nevada,Clark,"3,281 Feet
                    (1,000 Meters)",Zinc,36.3689,-115.1711,35.62399841449202
281,https://westernmininghistory.com/mine-detail/10149251/,Juniper Mine,Nevada,Clark,"3,471 Feet
                    (1,058 Meters)",Gold,35.2142,-114.7786,98.26859797322751
282,https://westernmininghistory.com/mine-detail/10046981/,Juniper Mine,Nevada,Clark,"3,442 Feet
                    (1,049 Meters)","Gold, Silver",35.21444,-114.77806,98.25919138062379
283,https://westernmininghistory.com/mine-detail/10270642/,Kaolin Wash,Nevada,Clark,,Magnesite,36.4917,-114.4736,76.7387942339809
284,https://westernmininghistory.com/mine-detail/10197304/,Kerr-Mcgee Chemical Plant,Nevada,Clark,"1,759 Feet
                    (536 Meters)",Magnesite,36.0425,-114.9992,11.919767160121856
285,https://westernmininghistory.com/mine-detail/10149512/,Kerry Milling,Nevada,Clark,,Gold,36.0486,-115.0028,11.566693486234398
286,https://westernmininghistory.com/mine-detail/10038079/,Key West,Nevada,Clark,"3,806 Feet
                    (1,160 Meters)","Copper, Nickel, Silver",36.61806,-114.16611,107.07496539382319
287,https://westernmininghistory.com/mine-detail/10124825/,Key West Mine,Nevada,Clark,"3,839 Feet
                    (1,170 Meters)",Copper,36.6181,-114.1661,107.07829401106329
288,https://westernmininghistory.com/mine-detail/10037224/,Keystone Mine,Nevada,Clark,"4,800 Feet
                    (1,463 Meters)","Gold, Copper",35.83639,-115.52194,42.43373770660889
289,https://westernmininghistory.com/mine-detail/10221928/,Keystone Mine,Nevada,Clark,"4,800 Feet
                    (1,463 Meters)",Gold,35.8375,-115.525,42.59338357246626
290,https://westernmininghistory.com/mine-detail/10124557/,Kim Ball Magnesite Deposit,Nevada,Clark,,Magnesite,36.425,-114.1278,99.19610871691306
291,https://westernmininghistory.com/mine-detail/10040451/,Kirby Mine,Nevada,Clark,,Zinc,35.82361,-115.52528,43.49278465739786
292,https://westernmininghistory.com/mine-detail/10246824/,Kirby Mine,Nevada,Clark,"4,800 Feet
                    (1,463 Meters)",Lead,35.8253,-115.5222,43.15759051896773
293,https://westernmininghistory.com/mine-detail/10197842/,Lake Side Copper,Nevada,Clark,,Copper,36.2133,-114.3611,71.52261203600862
294,https://westernmininghistory.com/mine-detail/10310511/,Lakeshore Mine,Nevada,Clark,"2,799 Feet
                    (853 Meters)",Gold,36.13833,-114.19389,84.8088668306144
295,https://westernmininghistory.com/mine-detail/10037181/,Lakeshore Mine,Nevada,Clark,"2,799 Feet
                    (853 Meters)",Gold,36.13833,-114.19389,84.8088668306144
296,https://westernmininghistory.com/mine-detail/10197509/,Lakeview Mine,Nevada,Clark,"2,884 Feet
                    (879 Meters)",Copper,36.1578,-114.2914,76.41300593535817
297,https://westernmininghistory.com/mine-detail/10037182/,Lakeview Mine,Nevada,Clark,"2,799 Feet
                    (853 Meters)",Copper,36.15833,-114.29278,76.29958151561475
298,https://westernmininghistory.com/mine-detail/10149648/,Last Chance,Nevada,Clark,"3,281 Feet
                    (1,000 Meters)",Silver,36.0514,-115.3236,17.27546128084855
299,https://westernmininghistory.com/mine-detail/10197309/,Last Chance Claim,Nevada,Clark,"1,801 Feet
                    (549 Meters)",Uranium,36.58,-114.5556,78.31598198111948
300,https://westernmininghistory.com/mine-detail/10103570/,Lavina Mine,Nevada,Clark,"4,400 Feet
                    (1,341 Meters)","Gold, Silver, Copper, Lead",35.84472,-115.4775,38.62748926228215
301,https://westernmininghistory.com/mine-detail/10197753/,Lavina Mine,Nevada,Clark,"4,199 Feet
                    (1,280 Meters)",Gold,35.8447,-115.4769,38.58526475427792
302,https://westernmininghistory.com/mine-detail/10103557/,Lead King Mine,Nevada,Clark,"2,480 Feet
                    (756 Meters)",Lead,36.31972,-114.97806,32.98692859516304
303,https://westernmininghistory.com/mine-detail/10246305/,Lead King Mine,Nevada,Clark,"2,480 Feet
                    (756 Meters)",Lead,36.32,-114.9783,33.00623980877125
304,https://westernmininghistory.com/mine-detail/10037152/,Lead Prospect,Nevada,Clark,"3,999 Feet
                    (1,219 Meters)",Lead,36.62917,-114.15667,108.48253189376652
305,https://westernmininghistory.com/mine-detail/10246546/,Lead Prospect,Nevada,Clark,"4,321 Feet
                    (1,317 Meters)",Lead,36.5472,-114.1247,105.8046763436676
306,https://westernmininghistory.com/mine-detail/10246250/,Lily Group,Nevada,Clark,"4,478 Feet
                    (1,365 Meters)",Gold,35.4292,-115.1611,69.0958395475879
307,https://westernmininghistory.com/mine-detail/10037225/,Lincoln Mine,Nevada,Clark,"3,399 Feet
                    (1,036 Meters)",Copper,35.77778,-115.42056,39.937556020560415
308,https://westernmininghistory.com/mine-detail/10103563/,Lincoln Mine,Nevada,Clark,"4,800 Feet
                    (1,463 Meters)",Copper,36.33111,-114.18306,90.6618153304135
309,https://westernmininghistory.com/mine-detail/10294601/,Lincoln Mine,Nevada,Clark,"4,800 Feet
                    (1,463 Meters)",Copper,36.3317,-114.1828,90.70604099004535
310,https://westernmininghistory.com/mine-detail/10294417/,Lincoln Mine,Nevada,Clark,"3,330 Feet
                    (1,015 Meters)",Copper,35.7772,-115.42,39.953723878586324
311,https://westernmininghistory.com/mine-detail/10221412/,Little Betty,Nevada,Clark,"3,438 Feet
                    (1,048 Meters)",Zinc,35.7728,-115.4228,40.49003185109454
312,https://westernmininghistory.com/mine-detail/10149264/,"Little Hal, Steve #1 & 11 Claims",Nevada,Clark,,Uranium,36.1819,-115.0069,18.435044121146877
313,https://westernmininghistory.com/mine-detail/10197914/,Little Snake & Purple Valentine,Nevada,Clark,"3,150 Feet
                    (960 Meters)",Uranium,35.9475,-115.2733,17.11947023001623
314,https://westernmininghistory.com/mine-detail/10124768/,Little Tom Prospect,Nevada,Clark,,Manganese,36.0086,-114.8089,29.370112514452398
315,https://westernmininghistory.com/mine-detail/10294475/,Little Tommy G No. 9 Mine,Nevada,Clark,"4,482 Feet
                    (1,366 Meters)",Platinum,35.8806,-115.5222,39.90080985962221
316,https://westernmininghistory.com/mine-detail/10221661/,Locality 19,Nevada,Clark,,Uranium,35.8333,-115.2931,28.1618049766433
317,https://westernmininghistory.com/mine-detail/10270618/,Locality 21,Nevada,Clark,"3,599 Feet
                    (1,097 Meters)",Uranium,35.8444,-115.3094,27.927079899121882
318,https://westernmininghistory.com/mine-detail/10037183/,Long Shot Prospect,Nevada,Clark,"3,999 Feet
                    (1,219 Meters)",Uranium,36.31806,-114.14361,93.52776738621473
319,https://westernmininghistory.com/mine-detail/10294495/,Long Shot Prospect,Nevada,Clark,"3,681 Feet
                    (1,122 Meters)",Uranium,36.3117,-114.1444,93.24096274403796
320,https://westernmininghistory.com/mine-detail/10221565/,Long Trail,Nevada,Clark,,Silver,35.9928,-115.4856,32.4822442897546
321,https://westernmininghistory.com/mine-detail/10037226/,Lookout Mine,Nevada,Clark,"4,800 Feet
                    (1,463 Meters)","Zinc, Lead",35.80472,-115.45667,40.02711382459663
322,https://westernmininghistory.com/mine-detail/10037184/,Lookout Prospect,Nevada,Clark,"4,400 Feet
                    (1,341 Meters)",Gold,36.24194,-114.21306,85.1765367739232
323,https://westernmininghistory.com/mine-detail/10270383/,Lookout Prospect,Nevada,Clark,,Gold,36.2494,-114.2103,85.62357704938458
324,https://westernmininghistory.com/mine-detail/10270248/,Lucky Bart Prospect,Nevada,Clark,"3,760 Feet
                    (1,146 Meters)",Uranium,36.3053,-114.1486,92.66595194283892
325,https://westernmininghistory.com/mine-detail/10037185/,Lucky Bart Prospect,Nevada,Clark,,Uranium,36.31083,-114.14389,93.25480409604633
326,https://westernmininghistory.com/mine-detail/10294681/,Lucky Group,Nevada,Clark,,Copper,35.9994,-114.8681,24.345131995699884
327,https://westernmininghistory.com/mine-detail/10037150/,Lucky Strike Mine,Nevada,Clark,"6,401 Feet
                    (1,951 Meters)","Lead, Zinc",36.33778,-115.53861,48.55994453162702
328,https://westernmininghistory.com/mine-detail/10124616/,Lucky Strike Mine,Nevada,Clark,"6,558 Feet
                    (1,999 Meters)",Lead,36.335,-115.5389,48.377049187954334
329,https://westernmininghistory.com/mine-detail/10173901/,Lucy Grey Mine,Nevada,Clark,"3,638 Feet
                    (1,109 Meters)",Gold,35.5494,-115.2747,57.15762756696247
330,https://westernmininghistory.com/mine-detail/10037145/,Lucy Grey Mine,Nevada,Clark,"3,599 Feet
                    (1,097 Meters)",Gold,35.54944,-115.27556,57.170876546629046
331,https://westernmininghistory.com/mine-detail/10294993/,M & E Nos. 2 and 12 Claims,Nevada,Clark,"3,599 Feet
                    (1,097 Meters)",Uranium,35.7217,-114.9022,41.95457791032973
332,https://westernmininghistory.com/mine-detail/10269962/,M & M Santa Anna Mine,Nevada,Clark,,Silver,35.4972,-115.1411,61.48889678243154
333,https://westernmininghistory.com/mine-detail/10124506/,Mammoth Mine,Nevada,Clark,"3,199 Feet
                    (975 Meters)",Gold,35.4028,-114.8608,76.01255772724372
334,https://westernmininghistory.com/mine-detail/10197406/,Manganese Occurrence,Nevada,Clark,,Manganese,36.0881,-114.8381,26.70167252742471
335,https://westernmininghistory.com/mine-detail/10294228/,Manganese Prospect,Nevada,Clark,,Manganese,36.0881,-114.8514,25.522014453205866
336,https://westernmininghistory.com/mine-detail/10095376/,Manganese Prospects,Nevada,Clark,,Manganese,36.09111,-114.85083,25.62945479250683
337,https://westernmininghistory.com/mine-detail/10270251/,Manske Claim,Nevada,Clark,,Gold,35.9389,-115.2264,15.031375160566503
338,https://westernmininghistory.com/mine-detail/10149758/,Marron Prospect,Nevada,Clark,,Tungsten,36.1806,-114.1083,93.04338223826942
339,https://westernmininghistory.com/mine-detail/10037186/,Marron Tungsten Prospect,Nevada,Clark,,Tungsten,36.17222,-114.10333,93.34919235084244
340,https://westernmininghistory.com/mine-detail/10124389/,Mary Helen & Rose Alice Claims,Nevada,Clark,,Uranium,35.6842,-114.9089,45.36248801017258
341,https://westernmininghistory.com/mine-detail/10270763/,Mc Cullough Pass Prospect,Nevada,Clark,"3,773 Feet
                    (1,150 Meters)",Copper,35.7356,-115.1686,35.133641669932615
342,https://westernmininghistory.com/mine-detail/10149734/,Mcvicar Mine,Nevada,Clark,"3,599 Feet
                    (1,097 Meters)",Gold,35.7753,-115.5447,48.155702578274834
343,https://westernmininghistory.com/mine-detail/10124306/,Mesquite Farmers Water Assoc. Well,Nevada,Clark,,Geothermal,36.7808,-114.09,123.633453391322
344,https://westernmininghistory.com/mine-detail/10294419/,Mesquite Farmstead Well,Nevada,Clark,,Geothermal,36.7819,-114.0903,123.69314820568928
345,https://westernmininghistory.com/mine-detail/10270625/,Mica-Beryl Claims,Nevada,Clark,"3,839 Feet
                    (1,170 Meters)",Beryllium,35.5694,-114.7883,61.76438328782493
346,https://westernmininghistory.com/mine-detail/10173526/,Micron Mine & Mill,Nevada,Clark,,Gold,36.8414,-114.8639,91.1818166141816
347,https://westernmininghistory.com/mine-detail/10084965/,Micron Mine & Mill,Nevada,Clark,,Gold,36.81667,-114.86667,88.46566993147538
348,https://westernmininghistory.com/mine-detail/10197474/,Micronic Metals Mine,Nevada,Clark,,Gold,36.7644,-114.6281,91.30764252526247
349,https://westernmininghistory.com/mine-detail/10037227/,Middlesex Mine,Nevada,Clark,"4,800 Feet
                    (1,463 Meters)","Lead, Zinc",35.84583,-115.48583,39.16281097163815
350,https://westernmininghistory.com/mine-detail/10270233/,Middlesex Mine,Nevada,Clark,"4,800 Feet
                    (1,463 Meters)",Lead,35.8464,-115.4883,39.30748138311292
351,https://westernmininghistory.com/mine-detail/10149633/,Milford,Nevada,Clark,"3,120 Feet
                    (951 Meters)",Zinc,35.7181,-115.5139,50.49999306118697
352,https://westernmininghistory.com/mine-detail/10111423/,Milford Mine,Nevada,Clark,"3,599 Feet
                    (1,097 Meters)","Zinc, Lead",35.70889,-115.49111,49.897593876919714
353,https://westernmininghistory.com/mine-detail/10221260/,Moapa #1 Mine & Mill,Nevada,Clark,,Gold,36.8458,-114.8639,91.65383495660205
354,https://westernmininghistory.com/mine-detail/10221372/,Moapa Placer,Nevada,Clark,"1,319 Feet
                    (402 Meters)",Silica,36.5144,-114.4411,80.58600442315998
355,https://westernmininghistory.com/mine-detail/10294818/,Moapa Warm Springs,Nevada,Clark,,Geothermal,36.7111,-114.6828,83.75474185517197
356,https://westernmininghistory.com/mine-detail/10197715/,Mobile Mine,Nevada,Clark,"4,160 Feet
                    (1,268 Meters)",Zinc,35.8219,-115.5458,45.11860315544648
357,https://westernmininghistory.com/mine-detail/10101370/,Mobile Mine,Nevada,Clark,"4,400 Feet
                    (1,341 Meters)","Zinc, Lead",35.82222,-115.54417,44.97722217850061
358,https://westernmininghistory.com/mine-detail/10246537/,Mocking Bird Mill,Nevada,Clark,,Gold,35.6986,-114.8028,49.03780882596668
359,https://westernmininghistory.com/mine-detail/10257072/,Mohawk No.7 Prospect,Nevada,Clark,"3,740 Feet
                    (1,140 Meters)",Copper,35.8903,-115.5939,45.253252250966845
360,https://westernmininghistory.com/mine-detail/10037163/,Montana Claim,Nevada,Clark,"1,801 Feet
                    (549 Meters)",Gold,35.67333,-115.08306,42.12423198767416
361,https://westernmininghistory.com/mine-detail/10174065/,Monte Carlo Mine,Nevada,Clark,"3,310 Feet
                    (1,009 Meters)",Lead,35.4653,-114.8581,69.55020175717603
362,https://westernmininghistory.com/mine-detail/10037228/,Monte Cristo Mine,Nevada,Clark,"3,999 Feet
                    (1,219 Meters)",Zinc,35.76694,-115.45139,42.68332953244271
363,https://westernmininghistory.com/mine-detail/10149476/,Mountain Queen Mine,Nevada,Clark,"4,478 Feet
                    (1,365 Meters)",Lead,35.7333,-115.4819,47.305001469826756
364,https://westernmininghistory.com/mine-detail/10270253/,Mountain Top Mine,Nevada,Clark,"4,580 Feet
                    (1,396 Meters)",Zinc,35.7994,-115.4517,40.11049307222305
365,https://westernmininghistory.com/mine-detail/10246179/,Mountain View Prospect,Nevada,Clark,"5,840 Feet
                    (1,780 Meters)",Silver,36.17,-115.5208,37.43058931315044
366,https://westernmininghistory.com/mine-detail/10270875/,Muddy River Springs,Nevada,Clark,,Geothermal,36.7222,-114.7161,83.46880031068567
367,https://westernmininghistory.com/mine-detail/10271194/,Nevada Cobalt Mine & Mill,Nevada,Clark,,Gold,35.4794,-114.8036,70.01708499348189
368,https://westernmininghistory.com/mine-detail/10124432/,Nevada Eagle Mine,Nevada,Clark,"1,591 Feet
                    (485 Meters)",,35.69,-114.7514,52.68990211701171
369,https://westernmininghistory.com/mine-detail/10221296/,Nevada Pacific Minerals Co. Deposit,Nevada,Clark,,Silica,35.855,-115.2625,24.69671992720121
370,https://westernmininghistory.com/mine-detail/10232569/,Nevada Royale Quarries,Nevada,Clark,"3,780 Feet
                    (1,152 Meters)",Silica,35.8892,-115.3197,24.641974197990006
371,https://westernmininghistory.com/mine-detail/10124702/,New Deal Mine,Nevada,Clark,,Silver,35.3214,-114.7358,88.55950527523227
372,https://westernmininghistory.com/mine-detail/10037140/,New Era Mine,Nevada,Clark,"2,799 Feet
                    (853 Meters)",Gold,35.46667,-114.83444,70.19473398811716
373,https://westernmininghistory.com/mine-detail/10270352/,New Era Mines,Nevada,Clark,"2,881 Feet
                    (878 Meters)",Gold,35.4661,-114.8356,70.21349286093644
374,https://westernmininghistory.com/mine-detail/10037229/,New Year Mine,Nevada,Clark,,Zinc,35.71639,-115.455,47.18938380101182
375,https://westernmininghistory.com/mine-detail/10294847/,New Year Mine,Nevada,Clark,"4,879 Feet
                    (1,487 Meters)",Zinc,35.7167,-115.4353,46.086429547977076
376,https://westernmininghistory.com/mine-detail/10197404/,Nickel Creek Mill,Nevada,Clark,,Gold,36.7319,-114.3208,104.93823377137392
377,https://westernmininghistory.com/mine-detail/10008113/,Ninety-Nine Mine,Nevada,Clark,"5,600 Feet
                    (1,707 Meters)","Copper, Lead",35.95194,-115.465,31.930334779569137
378,https://westernmininghistory.com/mine-detail/10149204/,Ninety-Nine Mine,Nevada,Clark,"5,640 Feet
                    (1,719 Meters)",Copper,35.9508,-115.4653,31.99943137731447
379,https://westernmininghistory.com/mine-detail/10270277/,Ninety-Three Group,Nevada,Clark,,Copper,35.8758,-115.4944,37.98465675922641
380,https://westernmininghistory.com/mine-detail/10173520/,Nippeno Group,Nevada,Clark,"4,731 Feet
                    (1,442 Meters)",Gold,35.4872,-115.1458,62.608073549303306
381,https://westernmininghistory.com/mine-detail/10103561/,Nippeno Mine,Nevada,Clark,,Gold,35.4875,-115.14528,62.57376872234422
382,https://westernmininghistory.com/mine-detail/10103560/,Nob Hill Group,Nevada,Clark,,"Gold, Silver",35.68472,-114.84917,47.93622320752478
383,https://westernmininghistory.com/mine-detail/10149344/,Nugget of Gold Mine,Nevada,Clark,"16 Feet
                    (5 Meters)",Gold,35.6978,-114.8736,45.547525777925166
384,https://westernmininghistory.com/mine-detail/10294356/,Nunn Co,Nevada,Clark,,Silica,36.475,-114.475,75.47113313632029
385,https://westernmininghistory.com/mine-detail/10173503/,Nunn Prospect,Nevada,Clark,,Uranium,35.8444,-115.2972,27.311944329587938
386,https://westernmininghistory.com/mine-detail/10270345/,Oakland Group,Nevada,Clark,"3,579 Feet
                    (1,091 Meters)",Gold,35.4753,-114.8861,67.64271615622327
387,https://westernmininghistory.com/mine-detail/10046991/,Oakland Group,Nevada,Clark,"3,442 Feet
                    (1,049 Meters)",Gold,35.47611,-114.88556,67.57355837660238
388,https://westernmininghistory.com/mine-detail/10270039/,Occidental Mine,Nevada,Clark,"3,999 Feet
                    (1,219 Meters)",Gold,35.7097,-114.8586,45.13515857847514
389,https://westernmininghistory.com/mine-detail/10037187/,Old Dad and Uranium No. 1 Claims,Nevada,Clark,"5,236 Feet
                    (1,596 Meters)","Thorium, Uranium",36.32444,-114.19,89.82626584923062
390,https://westernmininghistory.com/mine-detail/10294965/,Old Dad and Uranium No. 1 Prospects,Nevada,Clark,,Uranium,36.3244,-114.1933,89.54627211249644
391,https://westernmininghistory.com/mine-detail/10037188/,Ole Mine,Nevada,Clark,"4,199 Feet
                    (1,280 Meters)",Gold,36.25056,-114.21278,85.44147612129667
392,https://westernmininghistory.com/mine-detail/10103628/,Oro Amigo Mine,Nevada,Clark,"3,937 Feet
                    (1,200 Meters)",Copper,35.84556,-115.55056,44.05463703912819
393,https://westernmininghistory.com/mine-detail/10197148/,Oro Amigo Mine,Nevada,Clark,"3,999 Feet
                    (1,219 Meters)",Gold,35.845,-115.5486,43.93604297197574
394,https://westernmininghistory.com/mine-detail/10197740/,Oro De Mojave Mine & Mill,Nevada,Clark,,Gold,35.4647,-114.7544,73.45108385842185
395,https://westernmininghistory.com/mine-detail/10294981/,Oro Plata Mine,Nevada,Clark,,Silver,35.6839,-114.9619,43.4941185244879
396,https://westernmininghistory.com/mine-detail/10084967/,Oro Plata Mine,Nevada,Clark,,Silver,35.43333,-114.95,70.5126060023919
397,https://westernmininghistory.com/mine-detail/10135662/,Oro Plata Mine,Nevada,Clark,"3,819 Feet
                    (1,164 Meters)",Silver,35.6711,-114.8342,49.938060381590056
398,https://westernmininghistory.com/mine-detail/10197360/,Over Prospect,Nevada,Clark,,Lead,35.8019,-115.4231,38.09872367911999
399,https://westernmininghistory.com/mine-detail/10023809/,Overton,Nevada,Clark,"1,519 Feet
                    (463 Meters)",Magnesite,36.50139,-114.48444,76.69236085409291
400,https://westernmininghistory.com/mine-detail/10221960/,Overton Mine,Nevada,Clark,"1,598 Feet
                    (487 Meters)",Magnesite,36.5,-114.4778,77.04343667853229
401,https://westernmininghistory.com/mine-detail/10124607/,Padden Mine,Nevada,Clark,"3 Feet
                    (1 Meters)",Silver,35.4686,-114.9653,66.37796666221402
402,https://westernmininghistory.com/mine-detail/10037230/,Palace and Porter Mines,Nevada,Clark,"4,301 Feet
                    (1,311 Meters)",Lead,35.76556,-115.44861,42.628650952759884
403,https://westernmininghistory.com/mine-detail/10221329/,Paradise Prospect,Nevada,Clark,"4,800 Feet
                    (1,463 Meters)",Copper,35.8992,-115.5464,40.93870459795254
404,https://westernmininghistory.com/mine-detail/10221358/,Patsy Mine,Nevada,Clark,"3,599 Feet
                    (1,097 Meters)",Mercury,35.7242,-114.8458,44.447973838640785
405,https://westernmininghistory.com/mine-detail/10040452/,Patsy Prospect,Nevada,Clark,"3,360 Feet
                    (1,024 Meters)",,35.72583,-114.83861,44.6795100646844
406,https://westernmininghistory.com/mine-detail/10197870/,Pauline Mine,Nevada,Clark,"5,600 Feet
                    (1,707 Meters)",Lead,35.9353,-115.4661,32.70338739584482
407,https://westernmininghistory.com/mine-detail/10008114/,Pauline Mine,Nevada,Clark,"5,640 Feet
                    (1,719 Meters)","Copper, Lead, Zinc",35.93611,-115.46694,32.73784718702978
408,https://westernmininghistory.com/mine-detail/10197218/,Perkins Manganese Deposit,Nevada,Clark,"1,601 Feet
                    (488 Meters)",Manganese,36.1836,-114.4814,60.24684563903665
409,https://westernmininghistory.com/mine-detail/10197194/,Peterson Spring,Nevada,Clark,,Geothermal,35.7211,-114.7275,51.60268687827704
410,https://westernmininghistory.com/mine-detail/10173662/,Peyton Mine,Nevada,Clark,"4,721 Feet
                    (1,439 Meters)",Lead,35.5056,-115.1144,60.56820975205473
411,https://westernmininghistory.com/mine-detail/10037169/,Peyton Mine,Nevada,Clark,,"Gold, Lead",35.5075,-115.12833,60.33807324494007
412,https://westernmininghistory.com/mine-detail/10246496/,Pilgrim Mine,Nevada,Clark,"4,541 Feet
                    (1,384 Meters)",Zinc,35.8697,-115.4928,38.21367473455399
413,https://westernmininghistory.com/mine-detail/10037030/,Pilgrim Mine,Nevada,Clark,"4,482 Feet
                    (1,366 Meters)","Zinc, Lead",35.86917,-115.48806,37.88260488614034
414,https://westernmininghistory.com/mine-detail/10149728/,Pittsburg Mine,Nevada,Clark,"3,560 Feet
                    (1,085 Meters)",Gold,35.4653,-114.8844,68.74443248612779
415,https://westernmininghistory.com/mine-detail/10221773/,Platina Mine,Nevada,Clark,"3,199 Feet
                    (975 Meters)",Copper,35.8219,-115.5689,46.85276127229785
416,https://westernmininghistory.com/mine-detail/10037231/,Platina Mine,Nevada,Clark,"3,599 Feet
                    (1,097 Meters)",Copper,35.8225,-115.56917,46.83698353534191
417,https://westernmininghistory.com/mine-detail/10281379/,Po' Boy,Nevada,Clark,"26 Feet
                    (8 Meters)",Gold,36.6028,-114.3556,92.77553484242702
418,https://westernmininghistory.com/mine-detail/10103555/,Pompeii Mine,Nevada,Clark,"3,501 Feet
                    (1,067 Meters)","Silver, Gold",35.4975,-114.92306,64.26074383158871
419,https://westernmininghistory.com/mine-detail/10197313/,Porter Mine,Nevada,Clark,"4,199 Feet
                    (1,280 Meters)",Zinc,35.7661,-115.4472,42.49895612163627
420,https://westernmininghistory.com/mine-detail/10047000/,Potosi Mine,Nevada,Clark,"6,558 Feet
                    (1,999 Meters)","Zinc, Lead",35.96167,-115.53556,37.65812200790377
421,https://westernmininghistory.com/mine-detail/10149828/,Potosi Mine,Nevada,Clark,"6,516 Feet
                    (1,986 Meters)",Zinc,35.9611,-115.5367,37.77380458797196
422,https://westernmininghistory.com/mine-detail/10246239/,Prairie Flower Mine,Nevada,Clark,"4,560 Feet
                    (1,390 Meters)",Lead,35.8542,-115.4983,39.56097106961639
423,https://westernmininghistory.com/mine-detail/10008116/,Prairie Flower Mine,Nevada,Clark,"4,482 Feet
                    (1,366 Meters)","Zinc, Lead",35.85528,-115.48833,38.747571203747356
424,https://westernmininghistory.com/mine-detail/10246711/,Prometheus,Nevada,Clark,"4,879 Feet
                    (1,487 Meters)",Zinc,35.8111,-115.4681,40.3139722911617
425,https://westernmininghistory.com/mine-detail/10149322/,Prospect No. 5,Nevada,Clark,"5,184 Feet
                    (1,580 Meters)",Copper,35.6125,-115.2856,50.60746131943631
426,https://westernmininghistory.com/mine-detail/10124696/,Prospect No. 6,Nevada,Clark,"5,545 Feet
                    (1,690 Meters)",Copper,35.61,-115.1994,49.32188982698772
427,https://westernmininghistory.com/mine-detail/10124601/,Prospect No. 7,Nevada,Clark,"6,496 Feet
                    (1,980 Meters)",Copper,35.5975,-115.1853,50.56354818126545
428,https://westernmininghistory.com/mine-detail/10197164/,Prospect No. 8,Nevada,Clark,"5,413 Feet
                    (1,650 Meters)",Zinc,35.5872,-115.1908,51.75263801780335
429,https://westernmininghistory.com/mine-detail/10037170/,Prospectors U Claim,Nevada,Clark,,"Uranium, Thorium",35.44333,-115.14361,67.48172866811312
430,https://westernmininghistory.com/mine-detail/10270317/,Prospectors U Claim,Nevada,Clark,"4,879 Feet
                    (1,487 Meters)",Uranium,35.4425,-115.1403,67.56981527557426
431,https://westernmininghistory.com/mine-detail/10037232/,Puelz Mine,Nevada,Clark,"4,301 Feet
                    (1,311 Meters)","Zinc, Lead, Silver, Gold",35.77389,-115.48,43.9185839193357
432,https://westernmininghistory.com/mine-detail/10221331/,Puelz Mine,Nevada,Clark,"4,321 Feet
                    (1,317 Meters)",Zinc,35.7739,-115.4792,43.86633809399547
433,https://westernmininghistory.com/mine-detail/10270304/,Quaker City Mine,Nevada,Clark,"4,160 Feet
                    (1,268 Meters)",Gold,35.705,-114.8664,45.19955515481781
434,https://westernmininghistory.com/mine-detail/10197704/,Quartette Mine,Nevada,Clark,"3,438 Feet
                    (1,048 Meters)",Gold,35.4519,-114.9231,69.12579404695568
435,https://westernmininghistory.com/mine-detail/10037033/,Quartette Mine,Nevada,Clark,"3,599 Feet
                    (1,097 Meters)","Gold, Copper, Lead, Silver",35.4525,-114.92028,69.1312872833016
436,https://westernmininghistory.com/mine-detail/10149686/,Quartz Claim,Nevada,Clark,"2,461 Feet
                    (750 Meters)",Manganese,36.3294,-114.0586,101.16225507339233
437,https://westernmininghistory.com/mine-detail/10037147/,Quo Vadis,Nevada,Clark,"2,799 Feet
                    (853 Meters)","Gold, Silver",35.95139,-114.99694,16.33842741196654
438,https://westernmininghistory.com/mine-detail/10173498/,Quo Vadis,Nevada,Clark,"2,841 Feet
                    (866 Meters)",Gold,35.9511,-114.9967,16.3761043750633
439,https://westernmininghistory.com/mine-detail/10269972/,R-55 Pit & Plant,Nevada,Clark,"1,362 Feet
                    (415 Meters)",Silica,36.515,-114.4319,81.26316295782976
440,https://westernmininghistory.com/mine-detail/10269957/,R.A.H.Group,Nevada,Clark,"1,680 Feet
                    (512 Meters)",Uranium,36.6522,-114.5139,86.83615695980603
441,https://westernmininghistory.com/mine-detail/10046992/,Radium Deposit,Nevada,Clark,"3,120 Feet
                    (951 Meters)",Radium,35.77806,-115.38472,37.88754860445914
442,https://westernmininghistory.com/mine-detail/10246629/,Railroad Deposit,Nevada,Clark,"2,300 Feet
                    (701 Meters)",Aluminum,35.9744,-114.9119,21.46725621177751
443,https://westernmininghistory.com/mine-detail/10009262/,Railroad Pass  Deposit,Nevada,Clark,"2,402 Feet
                    (732 Meters)",Gold,35.97111,-114.90833,21.90751693939751
444,https://westernmininghistory.com/mine-detail/10197876/,Rainbow Quarries,Nevada,Clark,"3,999 Feet
                    (1,219 Meters)",Copper,35.8833,-115.5894,45.19663692038315
445,https://westernmininghistory.com/mine-detail/10294862/,Rambler Mine,Nevada,Clark,"3,399 Feet
                    (1,036 Meters)",Gold,35.45,-114.9153,69.52337222276418
446,https://westernmininghistory.com/mine-detail/10149458/,Ranch View,Nevada,Clark,"5,000 Feet
                    (1,524 Meters)",Copper,36.5336,-114.0669,109.51164466005217
447,https://westernmininghistory.com/mine-detail/10246479/,Rand Mine,Nevada,Clark,"4,400 Feet
                    (1,341 Meters)",Gold,35.7014,-114.8606,45.81639475949177
448,https://westernmininghistory.com/mine-detail/10294684/,Rare Metals Corp. Mill,Nevada,Clark,,Gold,35.3778,-114.8417,79.20387173980345
449,https://westernmininghistory.com/mine-detail/10173734/,Red Bird Mine,Nevada,Clark,"3,760 Feet
                    (1,146 Meters)",Gold,35.4978,-114.9181,64.36122780352264
450,https://westernmininghistory.com/mine-detail/10037204/,Red Chief Claim,Nevada,Clark,,Manganese,36.09694,-114.855,25.384779247047295
451,https://westernmininghistory.com/mine-detail/10246366/,Red Chief Claim,Nevada,Clark,"1,381 Feet
                    (421 Meters)",Manganese,36.1097,-114.8642,24.913344238569504
452,https://westernmininghistory.com/mine-detail/10046999/,Red Cloud Mine,Nevada,Clark,"4,560 Feet
                    (1,390 Meters)",Gold,35.86694,-115.48333,37.65651258845768
453,https://westernmininghistory.com/mine-detail/10294400/,Red Cloud Mine,Nevada,Clark,"4,560 Feet
                    (1,390 Meters)",Gold,35.8672,-115.4942,38.46767942718287
454,https://westernmininghistory.com/mine-detail/10149368/,Red Dot,Nevada,Clark,"2,657 Feet
                    (810 Meters)",Copper,36.31,-114.2806,81.64959374616305
455,https://westernmininghistory.com/mine-detail/10221486/,Red George Pit,Nevada,Clark,"1,801 Feet
                    (549 Meters)",Silica,36.5656,-114.5228,79.11830942998098
456,https://westernmininghistory.com/mine-detail/10173871/,Red Sand Pit,Nevada,Clark,"1,401 Feet
                    (427 Meters)",Silica,36.5022,-114.4444,79.49814362250561
457,https://westernmininghistory.com/mine-detail/10149420/,Red Star Group,Nevada,Clark,,Gold,35.5386,-115.1761,57.02167088810151
458,https://westernmininghistory.com/mine-detail/10037171/,Red Star Group,Nevada,Clark,"5,801 Feet
                    (1,768 Meters)","Silver, Gold",35.54222,-115.17944,56.64237526216523
459,https://westernmininghistory.com/mine-detail/10221907/,Rest Mine,Nevada,Clark,"3,986 Feet
                    (1,215 Meters)",Gold,35.4708,-115.2011,64.72414633799495
460,https://westernmininghistory.com/mine-detail/10221921/,Rich Hill Mine,Nevada,Clark,"4,239 Feet
                    (1,292 Meters)",Gold,35.6831,-114.8461,48.23603431346304
461,https://westernmininghistory.com/mine-detail/10197681/,Roadside Prospect,Nevada,Clark,"4,888 Feet
                    (1,490 Meters)",Copper,36.5372,-114.0806,108.6407276727942
462,https://westernmininghistory.com/mine-detail/10149349/,Roaring Springs Ranch,Nevada,Clark,,Gold,36.8206,-114.6486,95.94545001544809
463,https://westernmininghistory.com/mine-detail/10257077/,Roman Mine,Nevada,Clark,"2,359 Feet
                    (719 Meters)",Gold,35.2942,-114.7367,91.30562410098754
464,https://westernmininghistory.com/mine-detail/10037233/,Root Mine,Nevada,Clark,"3,399 Feet
                    (1,036 Meters)","Zinc, Lead",35.77806,-115.54389,47.90444930311108
465,https://westernmininghistory.com/mine-detail/10174144/,Root Mine,Nevada,Clark,"3,520 Feet
                    (1,073 Meters)",Zinc,35.7781,-115.5417,47.74886790188842
466,https://westernmininghistory.com/mine-detail/10037234/,Rose Mine,Nevada,Clark,"4,400 Feet
                    (1,341 Meters)",Copper,35.81861,-115.51722,43.23289216572492
467,https://westernmininghistory.com/mine-detail/10221383/,Rose Prospect,Nevada,Clark,"4,239 Feet
                    (1,292 Meters)",Copper,35.8181,-115.5167,43.22920029082664
468,https://westernmininghistory.com/mine-detail/10149613/,Rosetta No. 1 and 2 Claims,Nevada,Clark,"3,999 Feet
                    (1,219 Meters)",Uranium,35.8283,-115.5575,45.6032556471647
469,https://westernmininghistory.com/mine-detail/10246687/,Rover,Nevada,Clark,"2,480 Feet
                    (756 Meters)",Gold,35.705,-114.8042,48.39478044158632
470,https://westernmininghistory.com/mine-detail/10294577/,Royal Blue Prospect,Nevada,Clark,"4,160 Feet
                    (1,268 Meters)",Copper,35.8133,-115.5078,42.91519487085772
471,https://westernmininghistory.com/mine-detail/10246236/,Rusty Bit Claims,Nevada,Clark,"2,625 Feet
                    (800 Meters)",Uranium,35.7247,-114.8031,46.73713879285781
472,https://westernmininghistory.com/mine-detail/10046998/,Ruth Mine,Nevada,Clark,"4,400 Feet
                    (1,341 Meters)","Lead, Silver",35.83611,-115.48583,39.801058171268856
473,https://westernmininghistory.com/mine-detail/10221550/,Ruth Mine,Nevada,Clark,"4,400 Feet
                    (1,341 Meters)",Lead,35.8367,-115.4867,39.824638613674175
474,https://westernmininghistory.com/mine-detail/10046993/,Sample Site 1145,Nevada,Clark,,"Lead, Zinc",35.78083,-115.53972,47.41826344403229
475,https://westernmininghistory.com/mine-detail/10047012/,Sample Site 1327,Nevada,Clark,,Potassium,35.98111,-114.92139,20.391710142565042
476,https://westernmininghistory.com/mine-detail/10246358/,Sampson Claim,Nevada,Clark,"3,599 Feet
                    (1,097 Meters)",Zinc,36.3739,-115.0983,36.12446032148286
477,https://westernmininghistory.com/mine-detail/10037155/,Sampson Claims,Nevada,Clark,"3,599 Feet
                    (1,097 Meters)",Zinc,36.37333,-115.09889,36.056969354845336
478,https://westernmininghistory.com/mine-detail/10222022/,Sandy Valley Mill,Nevada,Clark,,Gold,35.7611,-115.55,49.53765449367358
479,https://westernmininghistory.com/mine-detail/10246872/,Santa Cruz Mine,Nevada,Clark,"6,280 Feet
                    (1,914 Meters)",Beryllium,36.6508,-114.0561,117.19824264964247
480,https://westernmininghistory.com/mine-detail/10037141/,Santa Fe,Nevada,Clark,,"Gold, Silver",35.47222,-114.92583,66.8848987178866
481,https://westernmininghistory.com/mine-detail/10221507/,Santa Fe Mine,Nevada,Clark,"3,540 Feet
                    (1,079 Meters)",Gold,35.4722,-114.9256,66.89279515295244
482,https://westernmininghistory.com/mine-detail/10294700/,Sazarac,Nevada,Clark,"2,051 Feet
                    (625 Meters)",Gold,35.5711,-114.7753,62.197784289673315
483,https://westernmininghistory.com/mine-detail/10310513/,Searchlight Deposit,Nevada,Clark,"3,609 Feet
                    (1,100 Meters)",Gold,35.46583,-114.91722,67.78548734674605
484,https://westernmininghistory.com/mine-detail/60000186/,Searchlight District,Nevada,Clark,,"Vanadium, Copper, Zinc, Lead",35.45,-114.9333,69.08524410960759
485,https://westernmininghistory.com/mine-detail/60001653/,Searchlight District,Nevada,Clark,,Gold,35.4658,-114.9172,67.78920034796884
486,https://westernmininghistory.com/mine-detail/10109507/,Searchlight M & M,Nevada,Clark,,Gold,35.48861,-114.93306,64.95258489555657
487,https://westernmininghistory.com/mine-detail/10149820/,Searchlight M&M Mine,Nevada,Clark,"3,638 Feet
                    (1,109 Meters)",Gold,35.4869,-114.9244,65.35445389510686
488,https://westernmininghistory.com/mine-detail/10037142/,Searchlight Parallel Mine,Nevada,Clark,,"Gold, Silver",35.46611,-114.93472,67.32215544684605
489,https://westernmininghistory.com/mine-detail/10149588/,Sheba Queen,Nevada,Clark,"3,720 Feet
                    (1,134 Meters)",Fluorine-Fluorite,35.4758,-114.9061,67.02083689326162
490,https://westernmininghistory.com/mine-detail/10149834/,Shenandoah Mill,Nevada,Clark,,Gold,35.8028,-115.5917,49.73736565216976
491,https://westernmininghistory.com/mine-detail/10037021/,Shenandoah Mine,Nevada,Clark,"3,999 Feet
                    (1,219 Meters)","Lead, Zinc",35.82222,-115.54972,45.39090136596711
492,https://westernmininghistory.com/mine-detail/10149582/,Shenandoah Mine,Nevada,Clark,"4,364 Feet
                    (1,330 Meters)",Lead,35.8231,-115.5522,45.52179811547789
493,https://westernmininghistory.com/mine-detail/10098674/,Shoshone Cons. Lode Mining Claim,Nevada,Clark,"3,320 Feet
                    (1,012 Meters)","Gold, Silver, Lead, Copper",35.46583,-114.85806,69.49635400049965
494,https://westernmininghistory.com/mine-detail/10159505/,Silica Sand Prospect,Nevada,Clark,,Silica,36.4847,-114.5403,71.71991840768311
495,https://westernmininghistory.com/mine-detail/10221291/,Silver Bell Mine,Nevada,Clark,"4,800 Feet
                    (1,463 Meters)",Gold,35.5053,-115.1417,60.58911124843518
496,https://westernmininghistory.com/mine-detail/10174183/,Silver Bullet,Nevada,Clark,"3,445 Feet
                    (1,050 Meters)",Gold,35.7378,-114.8306,44.0513218474286
497,https://westernmininghistory.com/mine-detail/10149212/,Silver Gem Mine,Nevada,Clark,,Lead,35.7292,-115.4778,47.40211501981681
498,https://westernmininghistory.com/mine-detail/10124645/,Silver King Prospect,Nevada,Clark,"6,004 Feet
                    (1,830 Meters)",Copper,35.5764,-115.1875,52.918036643619466
499,https://westernmininghistory.com/mine-detail/10149146/,Silver Legion Mine,Nevada,Clark,"4,239 Feet
                    (1,292 Meters)",Gold,35.6769,-114.8519,48.54799708302732
500,https://westernmininghistory.com/mine-detail/10221623/,Silverstone,Nevada,Clark,,Gold,36.6619,-114.5928,83.39177323107101
501,https://westernmininghistory.com/mine-detail/10197238/,Simplot Pit No. 1,Nevada,Clark,"1,680 Feet
                    (512 Meters)",Silica,36.4883,-114.4622,77.289083240236
502,https://westernmininghistory.com/mine-detail/10197485/,Simplot Pit No. 2,Nevada,Clark,"1,680 Feet
                    (512 Meters)",Silica,36.4656,-114.4758,74.76766144771223
503,https://westernmininghistory.com/mine-detail/10173924/,Simplot Silica Pit,Nevada,Clark,"1,601 Feet
                    (488 Meters)",Silica,36.4792,-114.4772,75.61000348811575
504,https://westernmininghistory.com/mine-detail/10149703/,"Simplot Silica Pro., Mill No.2",Nevada,Clark,"1,401 Feet
                    (427 Meters)",Silica,36.555,-114.4631,82.08881698464891
505,https://westernmininghistory.com/mine-detail/10046997/,Singer Mine,Nevada,Clark,"3,301 Feet
                    (1,006 Meters)","Silver, Lead, Copper, Zinc",35.77694,-115.52528,46.69811052622485
506,https://westernmininghistory.com/mine-detail/10221937/,Singer Mine,Nevada,Clark,"3,438 Feet
                    (1,048 Meters)",Zinc,35.7767,-115.5261,46.77160630439849
507,https://westernmininghistory.com/mine-detail/10046987/,Sloan Limestone Quarry,Nevada,Clark,"3,199 Feet
                    (975 Meters)","Calcium, Magnesite",35.94917,-115.21278,13.399932935967835
508,https://westernmininghistory.com/mine-detail/10103545/,Smithsonite Mine,Nevada,Clark,"4,199 Feet
                    (1,280 Meters)","Zinc, Lead",35.82444,-115.54417,44.83816683201475
509,https://westernmininghistory.com/mine-detail/10173705/,Smithsonite Mine,Nevada,Clark,"3,999 Feet
                    (1,219 Meters)",Lead,35.8244,-115.5553,45.674449934785336
510,https://westernmininghistory.com/mine-detail/10149811/,Snoreen Company,Nevada,Clark,"1,362 Feet
                    (415 Meters)",Silica,36.4994,-114.4744,77.2324931120461
511,https://westernmininghistory.com/mine-detail/10037235/,Snowstorm Mine,Nevada,Clark,"4,800 Feet
                    (1,463 Meters)",Copper,35.87556,-115.48583,37.33733032728727
512,https://westernmininghistory.com/mine-detail/10270556/,Snowstorm Mine,Nevada,Clark,"4,800 Feet
                    (1,463 Meters)",Copper,35.8753,-115.485,37.28864713929515
513,https://westernmininghistory.com/mine-detail/10149600/,Solan Carnotite Prospects,Nevada,Clark,,Uranium,35.8958,-115.2597,20.680644835526017
514,https://westernmininghistory.com/mine-detail/10149599/,Solar Mine,Nevada,Clark,"3,881 Feet
                    (1,183 Meters)",,35.6842,-114.8386,48.49688232660735
515,https://westernmininghistory.com/mine-detail/10174050/,South Valley No. 2 Claim,Nevada,Clark,,Uranium,36.3408,-114.1117,97.0466555768873
516,https://westernmininghistory.com/mine-detail/10294736/,South Valley No. 4 Claim,Nevada,Clark,"3,609 Feet
                    (1,100 Meters)",Uranium,36.6278,-114.1717,107.3114115792535
517,https://westernmininghistory.com/mine-detail/10037143/,Southern Nevada Mine,Nevada,Clark,"3,701 Feet
                    (1,128 Meters)","Gold, Silver",35.48444,-114.92111,65.70182988231174
518,https://westernmininghistory.com/mine-detail/10208329/,Southern Nevada Mine,Nevada,Clark,"3,638 Feet
                    (1,109 Meters)",Gold,35.4842,-114.9222,65.6990617907971
519,https://westernmininghistory.com/mine-detail/10037236/,Speeter Mine,Nevada,Clark,"2,799 Feet
                    (853 Meters)","Lead, Vanadium",35.79167,-115.56139,48.21681301847345
520,https://westernmininghistory.com/mine-detail/10269921/,Spelter Mine,Nevada,Clark,"2,999 Feet
                    (914 Meters)",Lead,35.7933,-115.5542,47.58920526365161
521,https://westernmininghistory.com/mine-detail/10103564/,St. Louis Group,Nevada,Clark,"3,999 Feet
                    (1,219 Meters)",Gold,35.55611,-114.84417,60.73484782402824
522,https://westernmininghistory.com/mine-detail/10270677/,St. Louis Mine,Nevada,Clark,"3,970 Feet
                    (1,210 Meters)",Gold,35.5575,-114.845,60.563029447192974
523,https://westernmininghistory.com/mine-detail/10037237/,Star Mine,Nevada,Clark,"4,199 Feet
                    (1,280 Meters)","Lead, Zinc",35.76944,-115.44583,42.14029130876034
524,https://westernmininghistory.com/mine-detail/10294313/,Star Mine,Nevada,Clark,"4,160 Feet
                    (1,268 Meters)",Zinc,35.7694,-115.4453,42.111536614342654
525,https://westernmininghistory.com/mine-detail/10221305/,Stewart Mine,Nevada,Clark,"13 Feet
                    (4 Meters)",Silver,35.2172,-114.7692,98.23276101216402
526,https://westernmininghistory.com/mine-detail/10111463/,Sultan Mine,Nevada,Clark,"4,081 Feet
                    (1,244 Meters)","Lead, Zinc, Silver",35.75167,-115.49917,46.88714654068606
527,https://westernmininghistory.com/mine-detail/10246274/,Sultan Mine,Nevada,Clark,"3,839 Feet
                    (1,170 Meters)",Zinc,35.7522,-115.4994,46.86002301826388
528,https://westernmininghistory.com/mine-detail/10221263/,Sundog Mine,Nevada,Clark,"4,921 Feet
                    (1,500 Meters)",Gold,35.4925,-115.1122,62.0296461068649
529,https://westernmininghistory.com/mine-detail/10098363/,Sundog Mine,Nevada,Clark,"4,902 Feet
                    (1,494 Meters)",Gold,35.49333,-115.11306,61.93526394926775
530,https://westernmininghistory.com/mine-detail/10124342/,Sunrise Mountain Deposits,Nevada,Clark,,Silica,36.225,-114.9611,24.740843216900842
531,https://westernmininghistory.com/mine-detail/10173459/,Superfluous No1 Claim,Nevada,Clark,"2,720 Feet
                    (829 Meters)",Uranium,35.1833,-114.83,100.1642387315638
532,https://westernmininghistory.com/mine-detail/10037238/,Surprise Mine,Nevada,Clark,"4,800 Feet
                    (1,463 Meters)",Zinc,35.81778,-115.48694,41.13283639530824
533,https://westernmininghistory.com/mine-detail/10197584/,Surprise Mine,Nevada,Clark,"4,800 Feet
                    (1,463 Meters)",Zinc,35.8178,-115.3569,32.85435304626812
534,https://westernmininghistory.com/mine-detail/10173667/,Swansea Group,Nevada,Clark,"4,396 Feet
                    (1,340 Meters)",,35.8228,-115.4969,41.49116781011205
535,https://westernmininghistory.com/mine-detail/10246796/,Sweepstake Prospect,Nevada,Clark,"4,800 Feet
                    (1,463 Meters)",Copper,35.8311,-115.5353,43.76096117777564
536,https://westernmininghistory.com/mine-detail/10037239/,Sweepstake Prospect,Nevada,Clark,,"Lead, Copper",35.83194,-115.53639,43.79054389606995
537,https://westernmininghistory.com/mine-detail/10197556/,Swickard Mines,Nevada,Clark,"3,638 Feet
                    (1,109 Meters)",Gold,35.4578,-114.8608,70.24591098240036
538,https://westernmininghistory.com/mine-detail/10047006/,Taglo,Nevada,Clark,"5,361 Feet
                    (1,634 Meters)",Beryllium,36.64889,-114.05972,116.81179015014928
539,https://westernmininghistory.com/mine-detail/10037240/,Tam O'Shanter Mine.,Nevada,Clark,,Lead,35.70861,-115.48222,49.40516647658521
540,https://westernmininghistory.com/mine-detail/10221984/,Tam Oshanter Mine,Nevada,Clark,"3,360 Feet
                    (1,024 Meters)",Lead,35.7186,-115.4806,48.460375021481376
541,https://westernmininghistory.com/mine-detail/10084963/,Techatticup Mine,Nevada,Clark,,Gold,35.7,-114.8,49.06678965055243
542,https://westernmininghistory.com/mine-detail/10124308/,Techatticup Mine,Nevada,Clark,,Gold,35.625,-114.9083,51.37366708263437
543,https://westernmininghistory.com/mine-detail/10246422/,Techatticup Mine & Plant,Nevada,Clark,"2,510 Feet
                    (765 Meters)",Gold,35.7072,-114.8033,48.250415823966414
544,https://westernmininghistory.com/mine-detail/10174011/,Thanksgiving Lode,Nevada,Clark,"3,281 Feet
                    (1,000 Meters)",Copper,36.6047,-114.185,104.83847591742686
545,https://westernmininghistory.com/mine-detail/10047005/,Thanksgiving Prospect,Nevada,Clark,"3,681 Feet
                    (1,122 Meters)","Copper, Nickel",36.60556,-114.18556,104.85382823471201
546,https://westernmininghistory.com/mine-detail/10149258/,Thor Claims,Nevada,Clark,,Uranium,35.4658,-115.1769,65.10357630166234
547,https://westernmininghistory.com/mine-detail/10037172/,Thorium Prospect,Nevada,Clark,,"Uranium, Thorium",35.4025,-115.12833,72.01343519539924
548,https://westernmininghistory.com/mine-detail/10294575/,Three Kids,Nevada,Clark,"1,804 Feet
                    (550 Meters)",Manganese,36.07,-114.808,29.15828847050325
549,https://westernmininghistory.com/mine-detail/10037203/,Three Kids Deposit,Nevada,Clark,,Manganese,36.09139,-114.91194,20.255095832129147
550,https://westernmininghistory.com/mine-detail/10270327/,Tiffany Quarry,Nevada,Clark,"3,360 Feet
                    (1,024 Meters)",Silica,36.6289,-114.8661,68.60479954444288
551,https://westernmininghistory.com/mine-detail/10270156/,Tiffin Mine,Nevada,Clark,"3,520 Feet
                    (1,073 Meters)",Zinc,35.7761,-115.5258,46.79459707614985
552,https://westernmininghistory.com/mine-detail/10046996/,Tiffin Mine,Nevada,Clark,"3,520 Feet
                    (1,073 Meters)","Zinc, Lead",35.77778,-115.52583,46.67494175078752
553,https://westernmininghistory.com/mine-detail/10173606/,Tiger Lily Silver Mine,Nevada,Clark,"5,200 Feet
                    (1,585 Meters)",Silver,35.4494,-115.1228,66.80239951580046
554,https://westernmininghistory.com/mine-detail/10174020/,Timet Plant  Ti,Nevada,Clark,,"Titanium, Metal",36.0408,-115.0006,11.809446710916868
555,https://westernmininghistory.com/mine-detail/10197660/,Tinto Mining & Development Co.,Nevada,Clark,"4,400 Feet
                    (1,341 Meters)",Lead,35.8494,-115.4872,39.03440799152351
556,https://westernmininghistory.com/mine-detail/10037189/,Tramp Mine,Nevada,Clark,"3,999 Feet
                    (1,219 Meters)",Copper,36.37944,-114.1675,93.91088173111298
557,https://westernmininghistory.com/mine-detail/10174026/,Tramp Mine,Nevada,Clark,"4,081 Feet
                    (1,244 Meters)",Copper,36.3819,-114.1683,93.95061546178319
558,https://westernmininghistory.com/mine-detail/10270205/,Treasure Hawk Mine,Nevada,Clark,,Gold,36.2417,-114.1619,89.62503641798787
559,https://westernmininghistory.com/mine-detail/10084962/,Treasure Hawk Mine & Mill,Nevada,Clark,,"Gold, Silver",36.21667,-114.16667,88.5992524914597
560,https://westernmininghistory.com/mine-detail/10294826/,Treasure Trove Mine,Nevada,Clark,,Gold,35.1844,-114.6067,107.31570929334258
561,https://westernmininghistory.com/mine-detail/10037190/,Union Mine,Nevada,Clark,,Gold,36.11833,-114.20472,83.6219852920597
562,https://westernmininghistory.com/mine-detail/10197641/,Union Mine,Nevada,Clark,,Gold,36.1161,-114.205,83.57597469020146
563,https://westernmininghistory.com/mine-detail/10197903/,United Nickel Group,Nevada,Clark,"4,400 Feet
                    (1,341 Meters)",Nickel,36.6244,-114.1417,109.25590719794972
564,https://westernmininghistory.com/mine-detail/10149393/,Unnamed,Nevada,Clark,"3,609 Feet
                    (1,100 Meters)",Uranium,36.2572,-114.1047,95.01574649122387
565,https://westernmininghistory.com/mine-detail/10294253/,Unnamed Adit,Nevada,Clark,"3,940 Feet
                    (1,201 Meters)",Lead,35.7689,-115.4733,43.88369524023686
566,https://westernmininghistory.com/mine-detail/10197661/,Unnamed Prospect,Nevada,Clark,"4,193 Feet
                    (1,278 Meters)",Uranium,35.8931,-115.6486,49.70686341751709
567,https://westernmininghistory.com/mine-detail/10197153/,Unnamed Prospect,Nevada,Clark,"3,871 Feet
                    (1,180 Meters)",Copper,35.565,-114.8428,59.895214778084615
568,https://westernmininghistory.com/mine-detail/10246752/,Unnamed Prospect,Nevada,Clark,"3,773 Feet
                    (1,150 Meters)",Copper,35.5972,-114.8528,56.281277541863595
569,https://westernmininghistory.com/mine-detail/10294330/,Unnamed Prospect,Nevada,Clark,"4,449 Feet
                    (1,356 Meters)",Uranium,35.7958,-115.4411,39.71436283383434
570,https://westernmininghistory.com/mine-detail/10294712/,Unnamed Prospect,Nevada,Clark,"3,839 Feet
                    (1,170 Meters)",Gold,35.5681,-114.8378,59.78306258021485
571,https://westernmininghistory.com/mine-detail/10173794/,Unnamed Prospect,Nevada,Clark,,Copper,36.3531,-114.2469,86.22192774996357
572,https://westernmininghistory.com/mine-detail/10174098/,Unnamed Prospect,Nevada,Clark,"2,428 Feet
                    (740 Meters)",Uranium,36.3242,-114.2831,82.0068877730343
573,https://westernmininghistory.com/mine-detail/10221629/,Unnamed Shaft,Nevada,Clark,"5,279 Feet
                    (1,609 Meters)",Gold,35.4894,-115.1283,62.350692700148315
574,https://westernmininghistory.com/mine-detail/10208167/,Unnamed Shaft,Nevada,Clark,"3,159 Feet
                    (963 Meters)",Gold,35.4778,-114.8631,68.0899698259446
575,https://westernmininghistory.com/mine-detail/10149780/,Unnamed Spring,Nevada,Clark,,Geothermal,36.5619,-114.4439,83.86906092521505
576,https://westernmininghistory.com/mine-detail/10208152/,Unnamed Spring,Nevada,Clark,,Geothermal,36.7194,-114.7183,83.10263481838687
577,https://westernmininghistory.com/mine-detail/10221569/,Unnamed Well,Nevada,Clark,,Geothermal,36.7281,-114.7164,84.04417910209324
578,https://westernmininghistory.com/mine-detail/10149504/,Unnamed Well,Nevada,Clark,,Geothermal,36.7125,-114.71,82.75309809524842
579,https://westernmininghistory.com/mine-detail/10197727/,Unnamed Well,Nevada,Clark,,Geothermal,36.7547,-114.1442,118.08613873149528
580,https://westernmininghistory.com/mine-detail/10124348/,Uranium Location 6,Nevada,Clark,,Uranium,35.4944,-115.1417,61.800998367879906
581,https://westernmininghistory.com/mine-detail/10124946/,Uranium Location 7,Nevada,Clark,,Uranium,35.4944,-115.1583,61.841550380025495
582,https://westernmininghistory.com/mine-detail/10221974/,Uranium Prospect,Nevada,Clark,,Uranium,35.8728,-115.5361,41.41506604114145
583,https://westernmininghistory.com/mine-detail/10269984/,Uranium Prospect,Nevada,Clark,,Uranium,36.3225,-114.1631,92.0303650050565
584,https://westernmininghistory.com/mine-detail/10294773/,Urbain,Nevada,Clark,"2,297 Feet
                    (700 Meters)",Gold,35.745,-114.7875,45.94520765902087
585,https://westernmininghistory.com/mine-detail/10124643/,Utah Group,Nevada,Clark,"2,598 Feet
                    (792 Meters)",Gold,36.1383,-114.195,84.70943316863665
586,https://westernmininghistory.com/mine-detail/10037241/,Valentine Mine,Nevada,Clark,"4,199 Feet
                    (1,280 Meters)",Zinc,35.75056,-115.435,43.0947143725924
587,https://westernmininghistory.com/mine-detail/10124984/,Valentine Mine,Nevada,Clark,"3,999 Feet
                    (1,219 Meters)",Zinc,35.7506,-115.4336,43.011370785558164
588,https://westernmininghistory.com/mine-detail/10246913/,Valley Forge,Nevada,Clark,,Vanadium,35.8114,-115.5031,42.71314765733225
589,https://westernmininghistory.com/mine-detail/10197637/,Valley of Fire State Park,Nevada,Clark,,Uranium,36.55,-114.5333,77.21854053049483
590,https://westernmininghistory.com/mine-detail/10221823/,Valley View Project,Nevada,Clark,,Silver,35.7583,-115.4228,41.7325773125347
591,https://westernmininghistory.com/mine-detail/10046995/,Van Henry Claim,Nevada,Clark,"4,199 Feet
                    (1,280 Meters)",Zinc,35.79944,-115.49111,42.73009023598438
592,https://westernmininghistory.com/mine-detail/10271158/,Var Claims,Nevada,Clark,"3,199 Feet
                    (975 Meters)",Gold,35.7594,-114.8333,42.02549824514944
593,https://westernmininghistory.com/mine-detail/10269942/,Virgin Mountains Isa,Nevada,Clark,"4,003 Feet
                    (1,220 Meters)",Copper,36.6133,-114.1672,106.6867427817637
594,https://westernmininghistory.com/mine-detail/10294371/,Virgin Mtn. Beryllium Deposits,Nevada,Clark,"6,959 Feet
                    (2,121 Meters)",Beryllium,36.63,-114.0839,113.84579778754808
595,https://westernmininghistory.com/mine-detail/10294886/,Virgin River,Nevada,Clark,"1,440 Feet
                    (439 Meters)",,36.1944,-114.4578,62.596471899694876
596,https://westernmininghistory.com/mine-detail/10037205/,Virgin River Deposit,Nevada,Clark,"1,601 Feet
                    (488 Meters)",Manganese,36.19,-114.47,61.4138105925936
597,https://westernmininghistory.com/mine-detail/10149287/,Virgin River Project,Nevada,Clark,,Gold,36.6011,-114.3361,93.96855918160301
598,https://westernmininghistory.com/mine-detail/10197259/,Virginian Prospect,Nevada,Clark,,Gold,35.4786,-114.8792,67.50328054455457
599,https://westernmininghistory.com/mine-detail/10037144/,Virginian Prospect,Nevada,Clark,"3,399 Feet
                    (1,036 Meters)",Gold,35.47861,-114.88111,67.44432557903379
600,https://westernmininghistory.com/mine-detail/10269995/,Volcano Mine,Nevada,Clark,"4,800 Feet
                    (1,463 Meters)",Zinc,35.8056,-115.4669,40.64018756775647
601,https://westernmininghistory.com/mine-detail/10046994/,Volcano Mine,Nevada,Clark,,"Zinc, Lead",35.80639,-115.46833,40.677280351266155
602,https://westernmininghistory.com/mine-detail/10294738/,W. Whipple Well,Nevada,Clark,,Geothermal,36.5917,-114.4722,84.34900970211667
603,https://westernmininghistory.com/mine-detail/10221545/,Walker Mine,Nevada,Clark,"6,299 Feet
                    (1,920 Meters)",Tungsten,36.6467,-114.0867,114.69479391168267
604,https://westernmininghistory.com/mine-detail/10037153/,Walker Tri-State Mine,Nevada,Clark,"6,001 Feet
                    (1,829 Meters)",Tungsten,36.63528,-114.07639,114.73007281846023
605,https://westernmininghistory.com/mine-detail/10037164/,Wall Street Mine,Nevada,Clark,"3,399 Feet
                    (1,036 Meters)",Gold,35.70806,-114.84444,45.99330041168479
606,https://westernmininghistory.com/mine-detail/10124552/,Wall Street Mine,Nevada,Clark,"3,438 Feet
                    (1,048 Meters)",Gold,35.7078,-114.8444,46.019261158348876
607,https://westernmininghistory.com/mine-detail/10118844/,War Lord Prospect,Nevada,Clark,"4,593 Feet
                    (1,400 Meters)",Copper,35.6247,-115.1294,47.305732705637546
608,https://westernmininghistory.com/mine-detail/10037191/,Webster Mine,Nevada,Clark,"4,400 Feet
                    (1,341 Meters)",Gold,36.24917,-114.16778,89.31048465251816
609,https://westernmininghistory.com/mine-detail/10124975/,Webster Mine,Nevada,Clark,"4,400 Feet
                    (1,341 Meters)",Gold,36.2489,-114.1681,89.275356418787
610,https://westernmininghistory.com/mine-detail/10125007/,Weiser Anticline Uranium Occurrencs,Nevada,Clark,"2,083 Feet
                    (635 Meters)",Uranium,36.5825,-114.5689,77.74705019906834
611,https://westernmininghistory.com/mine-detail/10294811/,West Coast Silica Pit and Mill,Nevada,Clark,"1,299 Feet
                    (396 Meters)",Silica,36.5144,-114.4411,80.58600442315998
612,https://westernmininghistory.com/mine-detail/10294701/,West We Go,Nevada,Clark,,Gold,35.6125,-114.8944,53.14738812118972
613,https://westernmininghistory.com/mine-detail/10103546/,Whale Mine,Nevada,Clark,"3,999 Feet
                    (1,219 Meters)",Zinc,35.80833,-115.52806,44.70074616533099
614,https://westernmininghistory.com/mine-detail/10173921/,Whale Mine,Nevada,Clark,"3,681 Feet
                    (1,122 Meters)",Zinc,35.8078,-115.5286,44.77513515579639
615,https://westernmininghistory.com/mine-detail/10046984/,White Basin,Nevada,Clark,"2,300 Feet
                    (701 Meters)",Boron-Borates,36.33111,-114.57417,58.96758825173631
616,https://westernmininghistory.com/mine-detail/10294409/,White Caps Claims,Nevada,Clark,,Lead,36.5833,-115.1667,59.370169581267724
617,https://westernmininghistory.com/mine-detail/10174151/,White Cloud ?,Nevada,Clark,"3,740 Feet
                    (1,140 Meters)",Mica,36.1894,-114.2217,83.1690633550382
618,https://westernmininghistory.com/mine-detail/10174092/,White Park R.D. Mill,Nevada,Clark,,Gold,36.7889,-114.0653,125.88981598398856
619,https://westernmininghistory.com/mine-detail/10046983/,White Rock Mine,Nevada,Clark,"3,399 Feet
                    (1,036 Meters)","Silver, Copper, Gold",35.30194,-114.70806,91.5631861645697
620,https://westernmininghistory.com/mine-detail/10037192/,Whitmore Property,Nevada,Clark,,"Gold, Copper",36.15056,-114.22583,82.12653971083063
621,https://westernmininghistory.com/mine-detail/10232663/,Whitmore Property,Nevada,Clark,"3,980 Feet
                    (1,213 Meters)",Gold,36.1503,-114.2231,82.36575881763352
622,https://westernmininghistory.com/mine-detail/10068492/,Whitney Ridge,Nevada,Clark,,"Titanium, Metal, Iron",36.66667,-114.05,118.65017388925078
623,https://westernmininghistory.com/mine-detail/10095375/,Wiley Inspiration Mine,Nevada,Clark,"1,001 Feet
                    (305 Meters)","Silver, Gold",35.2075,-114.6025,105.18665596462426
624,https://westernmininghistory.com/mine-detail/10084968/,Willoro Project,Nevada,Clark,,Gold,35.55,-114.9,59.39977120821567
625,https://westernmininghistory.com/mine-detail/10149177/,Windmill Mine,Nevada,Clark,"3,940 Feet
                    (1,201 Meters)",Gold,36.1614,-114.1919,85.30829460567142
626,https://westernmininghistory.com/mine-detail/10097043/,Windmill Mine,Nevada,Clark,"3,999 Feet
                    (1,219 Meters)","Gold, Silver",36.16194,-114.19194,85.31318169224005
627,https://westernmininghistory.com/mine-detail/10246662/,Winona Group,Nevada,Clark,,Gold,36.2203,-114.1642,88.89925418696696
628,https://westernmininghistory.com/mine-detail/10037193/,Winona Group,Nevada,Clark,"5,000 Feet
                    (1,524 Meters)",Gold,36.21,-114.16806,88.3285346637844
629,https://westernmininghistory.com/mine-detail/10173852/,Woodruff and Perkins Well,Nevada,Clark,,Geothermal,36.7317,-114.735,83.68360836818783
630,https://westernmininghistory.com/mine-detail/10173584/,Wyatt Silica Mine,Nevada,Clark,,Silica,36.3972,-114.675,56.265623754317666
631,https://westernmininghistory.com/mine-detail/10124845/,Yeager Mine and Mill,Nevada,Clark,,Gold,35.4958,-115.175,61.763519695934946
632,https://westernmininghistory.com/mine-detail/10183980/,Yellow Jacket Group,Nevada,Clark,"3,199 Feet
                    (975 Meters)",Uranium,35.7003,-115.3008,41.78482130222819
633,https://westernmininghistory.com/mine-detail/10104120/,Yellow Pine Mine,Nevada,Clark,"4,721 Feet
                    (1,439 Meters)","Lead, Zinc, Silver, Copper",35.85,-115.495,39.57480194987729
634,https://westernmininghistory.com/mine-detail/10246378/,Yellow Pine Mine,Nevada,Clark,"4,721 Feet
                    (1,439 Meters)",Zinc,35.85,-115.4953,39.59713572793202
635,https://westernmininghistory.com/mine-detail/10294295/,Yellow Queen,Nevada,Clark,"3,084 Feet
                    (940 Meters)",Uranium,36.3528,-114.2478,86.13469925438685
636,https://westernmininghistory.com/mine-detail/10173993/,Yucca Mine/Desert Queen,Nevada,Clark,,Gold,35.6808,-114.8917,46.40309563426294
637,https://westernmininghistory.com/mine-detail/10084964/,Yucca Mine/Desert Queen Mill,Nevada,Clark,,"Gold, Silver",35.7,-114.8,49.06678965055243
638,https://westernmininghistory.com/mine-detail/10221715/,Zeinka Mine,Nevada,Clark,"6,401 Feet
                    (1,951 Meters)",Copper,36.2514,-115.5611,44.59906736429047
639,https://westernmininghistory.com/mine-detail/10270608/,Zinc Occurrence,Nevada,Clark,"4,560 Feet
                    (1,390 Meters)",Zinc,35.8583,-115.4903,38.70814039839113
